X,Y,aun,school_num,location_id,school_name,school_name_label,street_address,zip_code,phone_number,grade_level,grade_org,enrollment,type,type_specific,objectid
-8365616.57613125,4858105.6840532,226518902,,,ST MARYS INTERPAROCHIAL SCHOOL,ST MARYS INTERPAROCHIAL SCHOOL,440 LOCUST ST,19106,(215) 923-7522,ELEMENTARY/MIDDLE,K-8,,3,ARCHDIOCESE,1
-8347297.4792823,4878677.04745461,226518722,,,ST MARTHA SCHOOL,ST MARTHA SCHOOL,11321 ACADEMY RD,19154,(215) 632-0320,ELEMENTARY/MIDDLE,PREK-8,,3,ARCHDIOCESE,2
-8353302.40148615,4877854.25242866,226514052,,,MATERNITY BVM SCHOOL,MATERNITY BVM SCHOOL,9322 OLD BUSTLETON AVE,19115,(215) 673-0235,ELEMENTARY/MIDDLE,PREK-8,,3,ARCHDIOCESE,3
-8346613.75652323,4877483.99563038,226514852,,,OUR LADY OF CALVARY SCHOOL,OUR LADY OF CALVARY SCHOOL,11023 KIPLING LN,19154,(215) 637-1648,ELEMENTARY/MIDDLE,PREK-8,,3,ARCHDIOCESE,4
-8348438.66584705,4876888.13846072,226511102,,,CHRIST THE KING SCHOOL,CHRIST THE KING SCHOOL,3205 CHESTERFIELD RD,19114,(215) 632-1375,ELEMENTARY/MIDDLE,PREK-8,,3,ARCHDIOCESE,5
-8366652.63432905,4857549.02347811,300511820,,,BEGINNINGS LEARNING CENTER,BEGINNINGS LEARNING CENTER,620 S 10TH ST,19147,(215) 627-3668,PRE-K/KINDERGARTEN,PREK-K,,3,PRIVATE,6
-8372140.62052749,4858507.57635065,226511232,,,JUBILEE SCHOOL,JUBILEE SCHOOL,4211 CHESTER AVE,19104,(215) 387-7592,ELEMENTARY SCHOOL,PREK-6,,3,PRIVATE,7
-8372863.02586878,4860064.61935274,226514112,,,MILL CREEK SCHOOL,MILL CREEK SCHOOL,4601 MARKET ST,19139,(215) 471-4900,MIDDLE/HIGH,7-12,,3,PRIVATE,8
-8360189.41587828,4867690.32604231,226512252,,,HOLY INNOCENTS SCHOOL,HOLY INNOCENTS CATHOLIC SCHOOL,1312 E BRISTOL ST,19124,(215) 743-5909,ELEMENTARY/MIDDLE,PREK-8,,3,ARCHDIOCESE,9
-8366365.5154799,4866952.66982312,226510064,,,SPRING GARDEN ACADEMY - TIOGA,SPRING GARDEN ACAD - TIOGA,3501-05 N 17TH ST,19140,(215) 226-1000,ELEMENTARY/MIDDLE,PREK-8,,3,PRIVATE,10
-8369275.88051793,4866561.12919782,226510073,,,ST JAMES SCHOOL,ST JAMES SCHOOL,3201-29 W CLEARFIELD ST,19132,(215) 226-1276,MIDDLE SCHOOL,4-8,,3,PRIVATE,11
-8365109.21588647,4870106.53210734,226510004,,,LOGAN HOPE SCHOOL,LOGAN HOPE SCHOOL,4934 N 13TH ST,19141,(215) 455-7442,ELEMENTARY/MIDDLE,K-8,,3,PRIVATE,12
-8372359.46804933,4877467.9535091,226515302,,,OUR MOTHER OF CONSOLATION,OUR MOTHER OF CONSOLATION SCHOOL,7-29 E CHESTNUT HILL AVE,19118,(215) 247-1060,ELEMENTARY/MIDDLE,PREK-8,,3,ARCHDIOCESE,13
-8369969.66445688,4874919.69598961,226512152,,,HOLY CROSS SCHOOL,HOLY CROSS SCHOOL,148-54 E MOUNT AIRY AVE,19119,(215) 242-0414,ELEMENTARY/MIDDLE,PREK-8,,3,PRIVATE,14
-8365457.61664862,4866471.34696543,126515001,5183,7510,"BETHUNE, MARY MCLEOD SCHOOL",MARY M. BETHUNE SCHOOL,3301 OLD YORK RD,19140,(215) 400-3890,ELEMENTARY/MIDDLE,K-8,398,1,DISTRICT,15
-8369346.96880686,4863806.38384003,126515001,3662,4220,"BLAINE, JAMES G. SCHOOL",JAMES G. BLAINE SCHOOL,3001 W BERKS ST,19121,(215) 400-7330,ELEMENTARY/MIDDLE,K-8,314,1,DISTRICT,16
-8372911.4687865,4861965.61157653,126515001,3663,1490,"BLANKENBURG, RUDOLPH SCHOOL",RUDOLPH BLANKENBURG SCHOOL,4600 W GIRARD AVE,19131,(215) 400-7280,ELEMENTARY/MIDDLE,K-8,257,1,DISTRICT,17
-8364900.30169626,4861300.5497188,126515001,7070,5150,"BODINE, WILLIAM W. HIGH SCHOOL",WILLIAM W. BODINE HIGH SCHOOL,1101 N 4TH ST,19123,(215) 400-7630,HIGH SCHOOL,9-12,491,1,DISTRICT,18
-8368632.52945067,4853533.01734725,126515001,3620,2240,"BREGY, F. AMEDEE SCHOOL",F. AMEDEE BREGY SCHOOL,1700 BIGLER ST,19145,(215) 400-8210,ELEMENTARY/MIDDLE,K-8,232,1,DISTRICT,19
-8372527.65541502,4859732.51295567,226519902,,,WEST CATHOLIC PREPARATORY HIGH SCHOOL,WEST CATHOLIC HIGH SCHOOL,4501-17 CHESTNUT ST,19139,(215) 386-2244,HIGH SCHOOL,9-12,,3,ARCHDIOCESE,20
-8368408.4640202,4855833.63979611,226519382,,,ST THOMAS AQUINAS SCHOOL,ST THOMAS AQUINAS SCHOOL,1616 S 18TH ST,19145,(215) 334-0878,ELEMENTARY/MIDDLE,PREK-8,,3,PRIVATE,21
-8367565.28114251,4876409.40106939,226519222,,,ST RAYMOND OF PENAFORT SCHOOL,ST RAYMOND SCHOOL,7940 WILLIAMS AVE,19150,(215) 548-1919,ELEMENTARY/MIDDLE,PREK-8,,3,PRIVATE,22
-8355688.52675476,4870418.11879203,226519422,,,BLESSED TRINITY REGIONAL CATHOLIC SCHOOL,BLESSED TRINITY REGIONAL CATHOLIC SCHOOL,3033 LEVICK ST,19149,(215) 338-9797,ELEMENTARY/MIDDLE,PREK-8,,3,ARCHDIOCESE,23
-8365089.40818015,4861524.81476566,226519142,,,ST PETER THE APOSTLE SCHOOL,ST PETER THE APOSTLE SCHOOL,1009 N 5TH ST,19123,(215) 922-5958,ELEMENTARY/MIDDLE,PREK-8,,3,ARCHDIOCESE,24
-8354524.2092162,4871966.25218498,226518932,,,ST MATTHEW SCHOOL,ST MATTHEW SCHOOL,3040 COTTMAN AVE,19149,(215) 333-3142,ELEMENTARY/MIDDLE,PREK-8,,3,ARCHDIOCESE,25
-8363395.08198911,4862568.12953972,226518422,,,ST LAURENTIUS SCHOOL,ST LAURENTIUS SCHOOL,1612 E BERKS ST,19125,(215) 423-8834,ELEMENTARY/MIDDLE,PREK-8,,3,ARCHDIOCESE,26
-8376695.49208232,4861512.83581659,226517352,,,ST FRANCES CABRINI REGIONAL CATHOLIC SCHOOL,ST FRANCES CABRINI,405 N 65TH ST,19151,(215) 748-2994,ELEMENTARY/MIDDLE,PREK-8,,3,PRIVATE,27
-8368836.15070328,4853394.72736829,226519242,,,ST PIO REGIONAL CATHOLIC SCHOOL,ST PIO CATHOLIC REGIONAL SCHOOL,1826 POLLOCK ST,19145,(215) 467-5430,ELEMENTARY/MIDDLE,PREK-8,,3,ARCHDIOCESE,28
-8346418.13567686,4879414.36258105,300513270,,,DELTA SCHOOL,DELTA SCHOOL,3515 WOODHAVEN RD,19154,(215) 637-8235,ELEMENTARY/MIDDLE/HIGH,K-12,,3,PRIVATE,29
-8372880.25784823,4877648.45070755,226514502,,,NORWOOD FONTBONNE ACADEMY,NORWOOD FONTBONNE ACADEMY,8891 GERMANTOWN AVE,19118,(215) 247-3811,ELEMENTARY/MIDDLE,PREK-8,,3,PRIVATE,30
-8372147.79507498,4874979.60614628,226511002,,,SPRINGSIDE CHESTNUT HILL ACADEMY,SPRINGSIDE CHESTNUT HILL ACADEMY,500 W WILLOW GROVE AVE,19118,(215) 247-4700,ELEMENTARY/MIDDLE/HIGH,PREK-12,,3,PRIVATE,31
-8359229.28266956,4873130.85266377,226510912,,,CEDAR GROVE CHRISTIAN ACADEMY LOWER SCHOOL,CEDAR GROVE CHRISTIAN ACADEMY LOWER SCHOOL,6445 BINGHAM ST,19111,(215) 725-3383,ELEMENTARY/MIDDLE,PREK-12,,3,PRIVATE,32
-8365452.90145517,4857616.14712089,226519162,,,ST PETERS SCHOOL,ST PETER'S SCHOOL,311-21 LOMBARD ST,19147,(215) 925-3963,ELEMENTARY/MIDDLE,PREK-8,,3,PRIVATE,33
-8367317.99182359,4862041.67209026,226518302,,,ST JOSEPH'S PREPARATORY SCHOOL,ST JOSEPH'S PREPARATORY SCHOOL,1733 W GIRARD AVE,19130,(215) 978-1950,HIGH SCHOOL,9-12,,3,PRIVATE,34
-8354194.03320157,4881520.73666871,326510160,,,RED LION ELEMENTARY SCHOOL,RED LION ELEMENTARY SCHOOL,256 GEIGER RD,19115,(215) 673-2100,ELEMENTARY SCHOOL,K-5,,3,PRIVATE,35
-8347414.91203235,4874704.53195594,226510232,,,ALPHA HOUSE NURSERY & KINDERGARTEN,ALPHA HOUSE NURSERY & KINDERGARTEN,9801 FRANKFORD AVE,19114,(215) 637-7700,PRE-K/KINDERGARTEN,PREK-K,,3,PRIVATE,36
-8348275.62630858,4874467.79690954,226510026,,,ALL SAINTS EPISCOPAL SCHOOL,ALL SAINTS EPISCOPAL SCHOOL,9601 FRANKFORD AVE,19114,(215) 637-8788,PRE-K/KINDERGARTEN,PREK-K,,3,PRIVATE,37
-8372489.66194076,4859474.40463992,226512762,,,ISLAMIC EDUCATION SCHOOL,ISLAMIC EDUCATION SCHOOL,4431-39 WALNUT ST,19104,(215) 387 – 5230,ELEMENTARY SCHOOL,K-8,,3,PRIVATE,38
-8352381.21642645,4874030.85788399,226518092,,,ST JEROME SCHOOL,ST JEROME SCHOOL,3031 STAMFORD ST,19136,(215) 624-0637,ELEMENTARY/MIDDLE,PREK-8,,3,ARCHDIOCESE,39
-8355913.49746201,4873705.2730282,226515552,,,RESURRECTION REGIONAL CATHOLIC SCHOOL,RESURRECTION REGIONAL CATHOLIC SCHOOL,2020 SHELMIRE AVE.,19152,(215) 742-1127,ELEMENTARY/MIDDLE,PREK-8,,3,ARCHDIOCESE,40
-8351566.36375747,4872949.27427844,226511602,,,FATHER JUDGE HIGH SCHOOL,FATHER JUDGE HIGH SCHOOL,3301 SOLLY AVE,19136,(215) 338-9494,HIGH SCHOOL,9-12,,3,ARCHDIOCESE,41
-8363247.77159425,4872389.85414027,226517902,,,ST HELENA INCARNATION REGIONAL CATHOLIC SCHOOL,ST HELENA INCARNATION SCHOOL,6101 N 5TH ST,19120,(215) 549-2947,ELEMENTARY/MIDDLE,PREK-8,,3,PRIVATE,42
-8375444.21808015,4862321.78878414,226519282,,,ST ROSE OF LIMA SCHOOL,ST ROSE OF LIMA SCHOOL,1508-46 N WANAMAKER ST,19131,(215) 473-6030,ELEMENTARY/MIDDLE,PREK-8,,3,PRIVATE,43
-8375070.25163824,4875308.15124412,226512702,,,IMMACULATE HEART OF MARY SCHOOL,IMMACULATE HEART OF MARY SCHOOL,815-23 CATHEDRAL RD,19128,(215) 482-2029,ELEMENTARY/MIDDLE,PREK-8,,3,ARCHDIOCESE,44
-8366114.681295,4874912.46089395,226516302,,,ST ATHANASIUS IMMACULATE CONCEPTION SCHOOL,ST ATHANASIUS IMMACULATE CONCEPTION SCHOOL,7105 LIMEKILN PIKE,19138,(215) 424-5045,ELEMENTARY/MIDDLE,PREK-8,,3,ARCHDIOCESE,45
-8358010.21013188,4877150.88365592,226517052,,,ST CECILIA SCHOOL,ST CECILIA SCHOOL,535 RHAWN ST,19111,(215) 725-8588,ELEMENTARY/MIDDLE,PREK-8,,3,ARCHDIOCESE,46
-8367837.66314249,4865296.41125895,226517252,,,ST MARTIN DE PORRES SCHOOL,ST MARTIN DE PORRES SCHOOL,2300-36 W LEHIGH AVE,19132,(215) 223-6872,ELEMENTARY/MIDDLE,PREK-8,,3,PRIVATE,47
-8369592.77174829,4863221.10904778,326510079,,,COMMUNITY PARTNERSHIP SCHOOL,COMMUNITY PARTNERSHIP SCHOOL,3033 W GLENWOOD AVE,19121,(215) 235-0461,ELEMENTARY SCHOOL,PREK-5,,3,PRIVATE,48
-8367257.75975918,4862122.174887,226511802,,,GESU SCHOOL,GESU SCHOOL,1700 W THOMPSON ST,19121,(215) 763-3660,ELEMENTARY/MIDDLE,PREK-8,,3,PRIVATE,49
-8365565.51246042,4864752.72371494,326510060,,,HOPE PARTNERSHIP FOR EDUCATION,HOPE PARTNERSHIP FOR EDUCATION,2601 N 11TH ST,19133,(215) 232-5410,MIDDLE SCHOOL,5-8,,3,PRIVATE,50
-8367597.84742882,4859612.30965789,226511652,,,FRIENDS SELECT SCHOOL,FRIENDS SELECT SCHOOL,1651 BENJAMIN FRANKLIN PKY,19103,(215) 561-5900,ELEMENTARY/MIDDLE/HIGH,PREK-12,,3,PRIVATE,51
-8372494.81720184,4858476.12951234,300514200,,,HMS SCHOOL FOR CHILDREN W/CEREBRAL PALSY,HMS SCHOOL FOR CHILDREN W/CEREBRAL PALSY,4400 BALTIMORE AVE,19104,(215) 222-2566,ELEMENTARY/MIDDLE/HIGH,PREK-12,,3,PRIVATE,52
-8369197.85312481,4858227.31787896,226515462,,,PHILADELPHIA SCHOOL,PHILADELPHIA SCHOOL,2501-29 LOMBARD ST,19146,(215) 545-5323,ELEMENTARY/MIDDLE,PREK-8,,3,PRIVATE,53
-8374278.06503287,4856525.94963061,300512620,,,CORNERSTONE CHRISTIAN ACADEMY,CORNERSTONE CHRISTIAN ACADEMY,1939 S 58TH ST,19143,(215) 724-6858,ELEMENTARY/MIDDLE,K-8,,3,PRIVATE,54
-8364703.46681502,4862143.84203534,226510132,,,AL-AQSA ISLAMIC SCHOOL,AL-AQSA ISLAMIC SCHOOL,1501-11 GERMANTOWN AVE,19122,(215) 765-6660,ELEMENTARY/MIDDLE/HIGH,K-12,,3,PRIVATE,55
-8360318.50968013,4863757.33679896,226514552,,,OUR LADY OF PORT RICHMOND SCHOOL,OUR LADY OF PORT RICHMOND SCHOOL,3233 E THOMPSON ST,19134,(215) 739-1920,ELEMENTARY/MIDDLE,PREK-8,,3,ARCHDIOCESE,56
-8346034.85868874,4880813.71463485,226516202,,,ST ANSELM ELEMENTARY SCHOOL,ST ANSELM ELEMENTARY SCHOOL,12650 DUNKS FERRY RD,19154,(215) 632-1133,ELEMENTARY/MIDDLE,PREK-8,,3,ARCHDIOCESE,57
-8350078.95284637,4884044.2237953,226517152,,,ST CHRISTOPHER SCHOOL,ST CHRISTOPHER SCHOOL,13305 PROCTOR RD,19116,(215) 673-5787,ELEMENTARY/MIDDLE,PREK-8,,3,ARCHDIOCESE,58
-8347480.78626623,4878329.01378972,226510452,,,ARCHBISHOP RYAN HIGH SCHOOL,ARCHBISHOP RYAN HIGH SCHOOL,11201 ACADEMY RD,19154,(215) 637-1800,HIGH SCHOOL,9-12,,3,ARCHDIOCESE,59
-8368375.8784754,4854225.4379857,226519022,,,ST MONICA SENIOR SCHOOL,ST MONICA SENIOR SCHOOL,2500 S 16TH ST,19145,(215) 467-5338,ELEMENTARY/MIDDLE,5-8,,3,ARCHDIOCESE,60
-8368725.00690124,4866694.88927353,226514102,,,MERCY CAREER AND TECHNICAL HIGH SCHOOL,MERCY CAREER AND TECHNICAL HIGH SCHOOL,2900 W HUNTING PARK AVE,19129,(215) 226-1225,HIGH SCHOOL,9-12,,3,PRIVATE,61
-8366047.01802304,4861911.70697762,226518662,,,ST MALACHY SCHOOL,ST MALACHY SCHOOL,1012 W THOMPSON ST,19122,(215) 232-0696,ELEMENTARY/MIDDLE,PREK-8,,3,PRIVATE,62
-8358619.7780098,4870551.60220948,226518752,,,ST MARTIN OF TOURS SCHOOL,ST MARTIN OF TOURS SCHOOL,5400 E ROOSEVELT BLV,19124,(215) 744-0444,ELEMENTARY/MIDDLE,PREK-8,,3,PRIVATE,63
-8348175.02526309,4874652.06241218,226518332,,,ST KATHERINE SIENA SCHOOL,ST KATHERINE OF SIENA SCHOOL,9720-88 FRANKFORD AVE,19114,(215) 637-2181,ELEMENTARY/MIDDLE,PREK-8,,3,ARCHDIOCESE,64
-8374232.71344819,4854610.56125595,226516452,,,ST BARNABAS CATHOLIC SCHOOL,ST BARNABAS CATHOLIC SCHOOL,6334 BUIST AVE,19142,(215) 729-3603,ELEMENTARY/MIDDLE,PREK-8,,3,PRIVATE,65
-8350695.79635742,4872760.66697594,226517302,,,ST DOMINIC SCHOOL,ST DOMINIC SCHOOL,8510 FRANKFORD AVE,19136,(215) 333-6703,ELEMENTARY/MIDDLE,PREK-8,,3,ARCHDIOCESE,66
-8372950.56614196,4858356.13930752,226517552,,,ST FRANCIS DESALES SCHOOL,ST FRANCIS DESALES SCHOOL,917 S 47TH ST,19143,(215) 387-1749,ELEMENTARY/MIDDLE,PREK-8,,3,ARCHDIOCESE,67
-8367098.85997659,4855396.61730896,226518692,,,SS JOHN NEUMANN AND MARIA GORETTI CATHOLIC HIGH SCHOOL,SS JOHN NEUMANN AND MARIA GORETTI CATHOLIC HIGH SCHOOL,1736 S 10TH ST,19148,(215) 465-8437,HIGH SCHOOL,9-12,,3,ARCHDIOCESE,68
-8352782.74987919,4870499.8295371,226518002,,,ST HUBERTS CATHOLIC HIGH SCHOOL,ST HUBERT CATHOLIC HIGH SCHOOL FOR GIRLS,7320 TORRESDALE AVE,19136,(215) 624-6840,HIGH SCHOOL,9-12,,3,ARCHDIOCESE,69
-8363047.4478754,4864484.80727127,226519752,,,VISITATION SCHOOL,VISITATION B.V.M. SCHOOL,300-40 E LEHIGH AVE,19125,(215) 634-7280,ELEMENTARY/MIDDLE,PREK-8,,3,ARCHDIOCESE,70
-8361237.46021396,4863253.73098259,226514252,,,MOTHER DIVINE GRACE SCHOOL,MOTHER OF DIVINE GRACE SCHOOL,2612 E MONMOUTH ST,19134,(215) 426-7325,ELEMENTARY/MIDDLE,PREK-8,,3,ARCHDIOCESE,71
-8347395.07058715,4874201.04721557,226514352,,,NAZARETH ACADEMY GRADE SCHOOL,NAZARETH ACADEMY GRADE SCHOOL,4701 GRANT AVE,19114,(215) 637-7777,ELEMENTARY/MIDDLE,1-8,,3,PRIVATE,72
-8347584.5113858,4874540.52034094,226514402,,,NAZARETH ACADEMY HIGH SCHOOL,NAZARETH ACADEMY HIGH SCHOOL,4001 GRANT AVE,19114,(215) 637-7676,HIGH SCHOOL,9-12,,3,PRIVATE,73
-8375959.04496014,4854332.98029328,226511922,,,GREATER HOPE CHRISTIAN ACADEMY,GREATER HOPE CHRISTIAN ACADEMY,7029 WOODLAND AVE,19142,(215) 729-0374,ELEMENTARY/MIDDLE/HIGH,PREK-12,,3,PRIVATE,74
-8367107.43068069,4869883.70529483,226517602,,,DEPAUL CATHOLIC SCHOOL,DEPAUL CATHOLIC SCHOOL,44 W LOGAN ST,19144,(215) 842-1266,ELEMENTARY/MIDDLE,PREK-8,,3,PRIVATE,75
-8369742.75245998,4872337.31021906,226510682,,,BLAIR CHRISTIAN ACADEMY & PRESCHOOL,BLAIR CHRISTIAN ACADEMY & PRESCHOOL,212-20 W UPSAL ST,19119,(215) 438-6557,ELEMENTARY/MIDDLE,PREK-8,,3,PRIVATE,76
-8350888.81200668,4884813.49621661,226510732,,,CALVARY CHRISTIAN ACADEMY,CALVARY CHRISTIAN ACADEMY,13500 PHILMONT AVE,19116,(215) 969-1579,ELEMENTARY/MIDDLE/HIGH,PREK-12,,3,PRIVATE,77
-8360611.83245513,4871262.75769314,226512732,,,INTERNATIONAL CHRISTIAN HIGH SCHOOL,INTERNATIONAL CHRISTIAN HIGH SCHOOL,5500 TABOR AVE,19120,(267) 900-2000,HIGH SCHOOL,9-12,,3,PRIVATE,78
-8353324.02634337,4877639.26625121,300514330,,,POLITZ HEBREW ACADEMY,POLITZ HEBREW ACADEMY,9229 OLD BUSTLETON AVE,19115,(215) 969-5960,ELEMENTARY/MIDDLE,K-8,,3,PRIVATE,79
-8364438.37434393,4862069.44377283,226510023,,,LASALLE ACADEMY,LASALLE ACADEMY,1432-36 N 2ND ST,19122,(215) 739-5804,ELEMENTARY/MIDDLE,3-8,,3,PRIVATE,80
-8372891.95093603,4861744.04195124,226515392,,,QUBA INSTITUTE OF ARABIC & ISLAMIC STUDIES,QUBA INSTITUTE OF ARABIC & ISLAMIC STUDIES,4637 LANCASTER AVE,19131,(215) 473-8589,ELEMENTARY/MIDDLE,K-8,,3,PRIVATE,81
-8353976.88715258,4880459.37045152,226515872,,,SHAARE SHAMAYIM-BETH JUDAH KINDERGARTEN,SHAARE SHAMAYIM-BETH JUDAH KINDERGARTEN,9768 VERREE RD,19115,(215) 673-2323,PRE-K/KINDERGARTEN,PREK-K,,3,PRIVATE,82
-8376481.98750136,4863839.94003268,226510020,,,NEW LIFE ALTERNATIVES CHRISTIAN ACADEMY,NEW LIFE ALTERNATIVES CHRISTIAN ACADEMY,1993-95 N 63RD ST,19151,(215) 877-3440,ELEMENTARY SCHOOL,PREK-7,,3,PRIVATE,83
-8364246.48302705,4868653.49236892,226512672,,,HUNTING PARK CHRISTIAN ACADEMY,HUNTING PARK CHRISTIAN ACADEMY,4400 N 6TH ST,19140,(267) 331-8002,ELEMENTARY/MIDDLE,PREK-8,,3,PRIVATE,84
-8372895.22406661,4877092.3071289,226514122,,,CREFELD SCHOOL,CREFELD SCHOOL,8836 CREFELD ST,19118,(215) 242-5545,MIDDLE/HIGH,7-12,,3,PRIVATE,85
-8365919.77544026,4858715.66701438,126515001,7905,2670,CONSTITUTION HIGH SCHOOL,CONSTITUTION HIGH SCHOOL,18 S 7TH ST,19106,(215) 400-7850,HIGH SCHOOL,9-12,421,1,DISTRICT,86
-8361743.51591936,4865131.30389878,126515001,6525,5230,"CONWELL, RUSSELL MIDDLE SCHOOL",RUSSELL H. CONWELL SCHOOL,1849 E CLEARFIELD ST,19134,(215) 400-7210,MIDDLE SCHOOL,5-8,119,1,DISTRICT,87
-8365222.69280996,4869652.34191658,126515001,7239,7100,"COOKE, JAY ELEMENTARY SCHOOL",JAY COOKE SCHOOL,1300 W LOUDON ST,19141,(215) 400-8330,ELEMENTARY/MIDDLE,K-8,370,1,DISTRICT,88
-8371982.90279876,4869208.3868708,126515001,5122,6410,COOK-WISSAHICKON SCHOOL,COOK-WISSAHICKON SCHOOL,201 E SALAIGNAC ST,19128,(215) 400-3430,ELEMENTARY/MIDDLE,K-8,414,1,DISTRICT,89
-8363426.24672201,4866324.34350126,126515001,5123,5470,"CRAMP, WILLIAM SCHOOL",WILLIAM CRAMP SCHOOL,3449 N MASCHER ST,19140,(215) 400-3860,ELEMENTARY SCHOOL,K-5,341,1,DISTRICT,90
-8367476.76065048,4859824.98932099,,,,PHILADELPHIA PERFORMING ARTS CHARTER SCHOOL,PHILADELPHIA PERFORMING ARTS CHARTER SCHOOL,1600 VINE ST,19102,(267) 428-2224,MIDDLE/HIGH,6-12,,2,CHARTER,91
-8368603.6296402,4870837.27110347,,,6955,HIGH ROAD SCHOOL OF PHILADELPHIA- GERMANTOWN,HIGH ROAD SCHOOL OF PHILADELPHIA- GERMANTOWN,5612 GREENE ST,19144,(267) 270-4665,MIDDLE/HIGH,6-12,,3,PRIVATE,92
-8369687.86465706,4869189.02558913,226515412,,,WILLIAM PENN CHARTER SCHOOL,WILLIAM PENN CHARTER SCHOOL,3000 W SCHOOL HOUSE LN,19144,(215) 844-3460,ELEMENTARY/MIDDLE/HIGH,PREK-12,,3,PRIVATE,93
-8373717.37844122,4859318.73222455,226510695,,,BEULAH BAPTIST CHRISTIAN DAY SCHOOL,BEULAH BAPTIST CHRISTIAN DAY SCHOOL,5001 SPRUCE ST,19139,(215) 747-3347,ELEMENTARY/MIDDLE,K-8,,3,PRIVATE,94
-8358668.47121548,4868173.20896669,226511622,,,FRANKFORD FRIENDS SCHOOL,FRANKFORD FRIENDS SCHOOL,1500 ORTHODOX ST,19124,(215) 533-5368,ELEMENTARY/MIDDLE,PREK-8,,3,PRIVATE,95
-8368122.32833131,4872148.8141593,226512992,,,LOTUS ACADEMY,LOTUS ACADEMY,340 E HAINES ST,19144,(215) 438-7500,ELEMENTARY SCHOOL,PREK-4,,3,PRIVATE,96
-8366184.82710696,4873127.47825448,126512980,7542,3309,IMHOTEP CHARTER SCHOOL,IMHOTEP INSTITUTE CHARTER HIGH SCHOOL,6201 N 21ST ST,19138,(215) 438-4140,HIGH SCHOOL,9-12,597,2,CHARTER,97
-8367775.42914981,4857944.17033707,126513510,7683,3341,INDEPENDENCE CHARTER SCHOOL,INDEPENDENCE CHARTER SCHOOL,1600 LOMBARD ST,19146,(215) 238-8000,ELEMENTARY/MIDDLE,K-8,803,2,CHARTER,98
-8374042.3706904,4856813.06610237,126512039,,3442,INDEPENDENCE CHARTER WEST,INDEPENDENCE CHARTER SCHOOL WEST,5600 CHESTER AVE,19143,(215) 724-5600,ELEMENTARY/MIDDLE,K-8,823,2,CHARTER,99
-8372581.16851947,4862309.24820994,126513070,,3308,INQUIRY CHARTER SCHOOL,INQUIRY CHARTER SCHOOL,1301 BELMONT AVE,19104,(215) 386-5768,ELEMENTARY SCHOOL,K-5,271,2,CHARTER,100
-8353863.95369017,4869936.80234298,182514568,7979,3389,KEYSTONE ACADEMY CHARTER,KEYSTONE ACADEMY CHARTER SCHOOL,4521 LONGSHORE AVE,19135,(215) 332-2111,ELEMENTARY/MIDDLE,K-8,645,2,CHARTER,101
-8373585.70017241,4863017.95514124,126514864,,3353,KIPP DUBOIS CHARTER SCHOOL,KIPP DUBOIS COLLEGIATE ACADEMY,5070 PARKSIDE AVE,19131,(215) 307-3465,HIGH SCHOOL,9-12,523,2,CHARTER,102
-8373587.1400954,4862976.9953814,126515492,,3443,KIPP WEST PHILA CHARTER SCHOOL,KIPP WEST PHILADELPHIA ELEMENTARY ACADEMY,5070 PARKSIDE AVE,19131,(267) 787-5700,ELEMENTARY SCHOOL,K-4,842,2,CHARTER,103
-8366965.14012126,4857230.53279176,126515001,7904,2620,ACADEMY AT PALUMBO,ACADEMY AT PALUMBO,1100 CATHARINE ST,19147,(215) 400-8130,HIGH SCHOOL,9-12,1226,1,DISTRICT,104
-8363464.40909179,4861944.83000277,126515001,7256,5200,"ADAIRE, ALEXANDER SCHOOL",ALEXANDER ADAIRE SCHOOL,1300 E PALMER ST,19125,(215) 400-7480,ELEMENTARY/MIDDLE,K-8,450,1,DISTRICT,105
-8369400.62029143,4865532.83489116,126515001,5292,4440,"ALLEN, DR. ETHEL SCHOOL",DR. ETHEL ALLEN SCHOOL,3200 W LEHIGH AVE,19132,(215) 400-7040,ELEMENTARY/MIDDLE,K-8,306,1,DISTRICT,106
-8355854.34751862,4870280.2781747,126515001,3758,8200,"ALLEN, ETHAN SCHOOL",ETHAN ALLEN SCHOOL ,6329 BATTERSBY ST,19149,(215) 400-3270,ELEMENTARY/MIDDLE,K-8,958,1,DISTRICT,107
-8359791.70829474,4863815.97874955,126515001,6823,5430,AMY 5 AT JAMES MARTIN,ALTERNATIVE MIDDLE YEARS AT JAMES MARTIN ,3380 RICHMOND ST,19134,(215) 400-7190,MIDDLE SCHOOL,6-8,208,1,DISTRICT,108
-8372649.12096053,4870456.95304854,126515001,7024,6480,AMY NORTHWEST,ACADEMY FOR THE MIDDLE YEARS AT NORTHWEST,6000 RIDGE AVE,19128,(215) 400-3460,MIDDLE SCHOOL,6-8,150,1,DISTRICT,109
-8376314.90080015,4858203.66438508,126515001,3804,1460,"ANDERSON, ADD B. SCHOOL",ADD B. ANDERSON SCHOOL,1034 S 60TH ST,19143,(215) 400-7890,ELEMENTARY/MIDDLE,K-8,331,1,DISTRICT,110
-8368542.75493051,4857497.77487177,126515001,3805,2480,MARIAN ANDERSON NEIGHBORHOOD ACADEMY,MARIAN ANDERSON NEIGHBORHOOD ACADEMY,2000 CATHARINE ST,19146,(215) 400-7940,ELEMENTARY/MIDDLE,K-8,339,1,DISTRICT,111
-8374002.73163781,4858332.6937719,326517668,,,HYACINTH MONTESSORI,HYACINTH MONTESSORI,5050 BALTIMORE AVE,19143,(267) 209-0869,ELEMENTARY SCHOOL,K-6,,3,PRIVATE,112
-8358015.58638807,4874983.72255551,126515001,3762,8230,"CROSSAN, KENNEDY C. SCHOOL",KENNEDY C. CROSSAN SCHOOL,7350 BINGHAM ST,19111,(215) 400-3160,ELEMENTARY SCHOOL,K-5,327,1,DISTRICT,113
-8367673.12005541,4874465.92279862,126515001,3706,6200,"DAY, ANNA B. SCHOOL",ANNA B. DAY SCHOOL,6324 CRITTENDEN ST,19138,(215) 400-3520,ELEMENTARY/MIDDLE,K-8,288,1,DISTRICT,114
-8364393.7444228,4864889.02352119,126515001,7175,5170,"DEBURGOS, J. ELEMENTARY",JULIA DE BURGOS SCHOOL,401 W LEHIGH AVE,19133,(215) 400-7080,ELEMENTARY/MIDDLE,K-8,550,1,DISTRICT,115
-8345685.62854923,4879863.57154004,126515001,4727,8420,"DECATUR, STEPHEN SCHOOL",STEPHEN DECATUR SCHOOL,3500 ACADEMY RD,19154,(215) 400-3050,ELEMENTARY/MIDDLE,K-8,1029,1,DISTRICT,116
-8368307.68988121,4864014.10654055,126515001,3786,4270,"DICK, WILLIAM SCHOOL",WILLIAM DICK SCHOOL,2498 W DIAMOND ST,19121,(215) 400-7340,ELEMENTARY/MIDDLE,K-8,343,1,DISTRICT,117
-8354164.9193832,4870061.22527881,126515001,3763,8240,"DISSTON, HAMILTON SCHOOL",HAMILTON DISSTON SCHOOL,6801 COTTAGE ST,19135,(215) 400-3350,ELEMENTARY/MIDDLE,K-8,740,1,DISTRICT,118
-8367540.57852146,4865236.42937339,126515001,3841,4060,"DOBBINS, MURRELL HIGH SCHOOL",MURRELL DOBBINS CAREER AND TECHNICAL HIGH SCHOOL,2150 W LEHIGH AVE,19132,(215) 400-7050,HIGH SCHOOL,9-12,582,1,DISTRICT,119
-8374626.04167072,4870508.65793608,126515001,3726,6450,"DOBSON, JAMES SCHOOL",JAMES DOBSON SCHOOL,4667 UMBRIA ST,19127,(215) 400-3570,ELEMENTARY/MIDDLE,K-8,229,1,DISTRICT,120
-8366656.43975561,4863807.16535468,126515001,5040,4460,"DUCKREY, TANNER SCHOOL",TANNER G. DUCKREY SCHOOL,1501 W DIAMOND ST,19121,(215) 400-7350,ELEMENTARY/MIDDLE,K-8,419,1,DISTRICT,121
-8366124.83618136,4862920.14231086,126515001,3687,5250,"DUNBAR, PAUL L. SCHOOL",PAUL L. DUNBAR SCHOOL,1750 N 12TH ST,19122,(215) 400-7410,ELEMENTARY/MIDDLE,K-8,224,1,DISTRICT,122
-8363371.28233153,4867665.09415678,126515001,3849,5020,"EDISON, THOMAS A. HIGH SCHOOL",THOMAS A. EDISON HIGH SCHOOL,151 W LUZERNE ST,19140,(215) 400-3900,HIGH SCHOOL,9-12,1020,1,DISTRICT,123
-8367997.42785703,4876550.48198798,126515001,3708,6210,"EDMONDS, FRANKLIN S. SCHOOL",FRANKLIN S. EDMONDS SCHOOL,8025 THOURON AVE,19150,(215) 400-3370,ELEMENTARY/MIDDLE,K-8,363,1,DISTRICT,124
-8362421.71415448,4865505.29996593,126515001,3688,5260,"ELKIN, LEWIS SCHOOL",LEWIS ELKIN SCHOOL,3199 D ST,19134,(215) 400-7140,ELEMENTARY SCHOOL,K-4,456,1,DISTRICT,125
-8364383.79958387,4873941.58001183,126515001,3738,7260,ELLWOOD SCHOOL,ELLWOOD SCHOOL,6701 N 13TH ST,19126,(215) 400-3540,ELEMENTARY SCHOOL,K-5,263,1,DISTRICT,126
-8368792.29670904,4873807.48000948,126515001,3709,6220,"EMLEN, ELEANOR C. SCHOOL",ELEANOR C. EMLEN SCHOOL,6501 CHEW AVE,19119,(215) 400-3470,ELEMENTARY SCHOOL,K-5,267,1,DISTRICT,127
-8366915.18216909,4863532.933963,126515001,7023,4030,ENGINEERING & SCIENCE HIGH,HIGH SCHOOL OF ENGINEERING AND SCIENCE,1600 W NORRIS ST,19121,(215) 400-7380,MIDDLE/HIGH,7-12,851,1,DISTRICT,128
-8354788.04722228,4875608.57286152,126515001,7235,8380,"FARRELL, LOUIS H. SCHOOL",LOUIS H. FARRELL SCHOOL,8300 CASTOR AVE,19152,(215) 400-3230,ELEMENTARY/MIDDLE,K-8,1189,1,DISTRICT,129
-8367118.83760806,4853663.46196346,126515001,7226,2190,"FELL, D. NEWLIN SCHOOL",D. NEWLIN FELL SCHOOL,900 W OREGON AVE,19148,(215) 400-8260,ELEMENTARY/MIDDLE,K-8,530,1,DISTRICT,130
-8359248.96251507,4871207.25167203,126515001,3816,7120,"FELS, SAMUEL HIGH SCHOOL",SAMUEL FELS HIGH SCHOOL,5500 LANGDON ST,19124,(215) 400-7100,HIGH SCHOOL,9-12,1259,1,DISTRICT,131
-8362506.09743792,4868752.55680209,126515001,7368,7500,FELTONVILLE ARTS & SCIENCES,FELTONVILLE SCHOOL OF ARTS AND SCIENCES,210 E COURTLAND ST,19120,(215) 400-3810,MIDDLE SCHOOL,6-8,542,1,DISTRICT,132
-8362434.32214545,4868898.47620551,126515001,3751,7310,FELTONVILLE INTERMEDIATE,FELTONVILLE INTERMEDIATE SCHOOL,238 E WYOMING AVE,19120,(215) 400-3730,ELEMENTARY SCHOOL,3-5,517,1,DISTRICT,133
-8362228.42120602,4872281.30022899,126515001,3739,7270,"FINLETTER, THOMAS K. SCHOOL",THOMAS K. FINLETTER SCHOOL,6100 N FRONT ST,19120,(215) 400-3750,ELEMENTARY/MIDDLE,K-8,607,1,DISTRICT,134
-8367478.39633415,4869735.86120472,126515001,6913,6230,FITLER ACADEMICS PLUS,FITLER ACADEMICS PLUS SCHOOL,140 W SEYMOUR ST,19144,(215) 400-3610,ELEMENTARY/MIDDLE,K-8,159,1,DISTRICT,135
-8346349.02976236,4877619.00018684,126515001,3731,8390,"FITZPATRICK, A. L. SCHOOL",A.L. FITZPATRICK SCHOOL,11061 KNIGHTS RD,19154,(215) 400-3060,ELEMENTARY/MIDDLE,K-8,844,1,DISTRICT,136
-8366889.56399305,4855423.74404238,226519042,,,ST ANTHONY OF PADUA REGIONAL CATHOLIC SCHOOL,ST ANTHONY OF PADUA REGIONAL CATHOLIC SCHOOL,913 PIERCE ST,19148,(215) 468-0353,ELEMENTARY/MIDDLE,PREK-8,,3,ARCHDIOCESE,137
-8368650.45627275,4861085.77552469,226517652,,,ST FRANCIS XAVIER SCHOOL,ST FRANCIS XAVIER SCHOOL,641-51 N 24TH ST,19130,(215) 763-6564,ELEMENTARY/MIDDLE,PREK-8,,3,ARCHDIOCESE,138
-8366991.58149585,4859884.33131372,226515602,,,ROMAN CATHOLIC HIGH SCHOOL,ROMAN CATHOLIC HIGH SCHOOL,301 N BROAD ST,19107,(215) 627-1270,HIGH SCHOOL,9-12,,3,ARCHDIOCESE,139
-8366239.54993294,4859772.85884444,226512352,,,HOLY REDEEMER SCHOOL,HOLY REDEEMER CHINESE CATHOLIC SCHOOL,903-27 VINE ST,19107,(215) 922-0999,ELEMENTARY/MIDDLE,K-8,,3,ARCHDIOCESE,140
-8365071.53040565,4867907.26805717,226512952,,,LITTLE FLOWER CATHOLIC SCHOOL,LITTLE FLOWER CATHOLIC SCHOOL,1000 W LYCOMING ST,19140,(215) 455-6900,HIGH SCHOOL,9-12,,3,ARCHDIOCESE,141
-8352379.14465252,4874062.91304852,226510502,,,SAINT LUCY SCHOOL FOR THE VISUALLY IMPAIRED,SAINT LUCY SCHOOL FOR THE VISUALLY IMPAIRED,3031 STAMFORD ST,19136,(215) 333-2496,ELEMENTARY/MIDDLE,K-8,,3,ARCHDIOCESE,142
-8364432.47826158,4866656.12107409,226519442,,,ST VERONICA SCHOOL,ST VERONICA SCHOOL,3501-25 N 6TH ST,19140,(215) 225-1575,ELEMENTARY/MIDDLE,K-8,,3,PRIVATE,143
-8359353.34843498,4864284.21799975,226517752,,,ST GEORGE SCHOOL,ST GEORGE SCHOOL,2700 E VENANGO ST,19134,(215) 634-8803,ELEMENTARY/MIDDLE,PREK-8,,3,ARCHDIOCESE,144
-8365357.73886083,4861252.8272385,226511132,,,THE CITY SCHOOL,THE CITY SCHOOL,910 N 6TH ST,19123,(215) 731-1930,MIDDLE/HIGH,6-12,,3,PRIVATE,145
-8346076.5269247,4877959.88605652,126515001,8039,8040,ARTS ACADEMY AT BENJAMIN RUSH,ARTS ACADEMY AT BENJAMIN RUSH,11081 KNIGHTS RD,19154,(215) 400-3030,HIGH SCHOOL,9-12,600,1,DISTRICT,146
-8368125.0966591,4870667.16375771,226511702,,,GERMANTOWN FRIENDS SCHOOL,GERMANTOWN FRIENDS SCHOOL,31 W COULTER ST,19144,(215) 951-2300,ELEMENTARY/MIDDLE/HIGH,PREK-12,,3,PRIVATE,147
-8368395.7400959,4870776.13184592,226511952,,,GREENE STREET FRIENDS SCHOOL,GREENE STREET FRIENDS SCHOOL,5511 GREENE ST,19144,(215) 438-7000,ELEMENTARY/MIDDLE,PREK-8,,3,PRIVATE,148
-8369397.74742248,4870873.90795823,300517255,,,WALDORF SCHOOL OF PHILADELPHIA,WALDORF SCHOOL OF PHILADELPHIA,6000 WAYNE AVE,19144,(215) 248-1662,ELEMENTARY/MIDDLE,PREK-8,,3,PRIVATE,149
-8369659.92163275,4873698.01242798,226510019,,,JESUS IS THE WAY CHRISTIAN ACADEMY,JESUS IS THE WAY CHRISTIAN ACADEMY,6753 GERMANTOWN AVE,19119,(267) 970-9779,ELEMENTARY/MIDDLE,PREK-8,,3,PRIVATE,150
-8365730.25022085,4858298.80203709,326510174,,,"CHESTERBROOK ACADEMY
",CHESTERBROOK ACADEMY,510 WALNUT ST,19106,(215) 709-9354,PRE-K/KINDERGARTEN,PREK-K,,3,PRIVATE,151
-8366661.17066553,4866331.08129535,226510080,,,CRISTO REY PHILADELPHIA HIGH SCHOOL,CRISTO REY PHILADELPHIA HIGH SCHOOL,1717 W ALLEGHENY AVE,19132,(215) 219-3943,HIGH SCHOOL,9-12,,3,PRIVATE,152
-8361806.09522744,4869910.65317632,226510081,,,OLNEY CHRISTIAN SCHOOL,OLNEY CHRISTIAN SCHOOL,425 E ROOSEVELT BLVD,19120,(215) 324-2323,ELEMENTARY SCHOOL,K-8,,3,PRIVATE,153
-8367620.27075224,4854697.32979292,226511502,,,OUR LADY OF HOPE REGIONAL CATHOLIC SCHOOL,OUR LADY OF HOPE,1248 JACKSON ST,19148,(215) 467-5385,ELEMENTARY/MIDDLE,PREK-8,,3,ARCHDIOCESE,154
-8369236.24249544,4852880.60448244,226510086,,,PHILADELPHIA CLASSICAL SCHOOL,PHILADELPHIA CLASSICAL SCHOOL,3301 S 20TH ST,19145,(267) 990-2698,ELEMENTARY/MIDDLE/HIGH,K-12,,3,PRIVATE,155
-8373278.09457154,4857863.17590523,226510071,,,PHILADELPHIA FREE SCHOOL,PHILADELPHIA FREE SCHOOL,4950 SPRINGFIELD AVE,19143,(215) 218-9586,ELEMENTARY/MIDDLE/HIGH,PREK-12,,3,PRIVATE,156
-8368361.83191983,4870596.58853146,300517000,,,PENNSYLVANIA SCHOOL FOR THE DEAF,PENNSYLVANIA SCHOOL FOR THE DEAF,100-52 W SCHOOL HOUSE LA,19144,(215) 951-4700,ELEMENTARY/MIDDLE/HIGH,PREK-12,,3,PRIVATE,157
-8376818.79990282,4863447.51469165,300516590,,,OVERBROOK SCHOOL FOR BLIND,OVERBROOK SCHOOL FOR BLIND,6333 MALVERN AVE,19151,(215) 877-0313,ELEMENTARY/MIDDLE/HIGH,PREK-12,,3,PRIVATE,158
-8368078.768757,4862146.09913354,226511852,,,GIRARD COLLEGE,GIRARD COLLEGE,2101 S COLLEGE AVE,19121,(215) 787-2600,ELEMENTARY/MIDDLE/HIGH,1-12,,3,PRIVATE,159
-8371977.56023809,4858683.60505682,226515832,,,THE CITY SCHOOL AT SPRUCE HILL,THE CITY SCHOOL AT SPRUCE HILL,4115 BALTIMORE AVE,19104,(215) 382-7839,ELEMENTARY SCHOOL,K-5,,3,PRIVATE,160
-8352876.3788972,4870790.18101598,326510170,,,BRIDGE WAY SCHOOL,BRIDGE WAY SCHOOL,7360 JACKSON ST,19136,(267) 437-2194,UNGRADED,9-12,,3,PRIVATE,161
-8372891.15874855,4865629.26557654,300515921,,,METHODIST SERVICES FOR CHILDREN AND FAMILIES,METHODIST SERVICES FOR CHILDREN AND FAMILIES,4300 MONUMENT RD,19131,(215) 877-1925,PRE-K/KINDERGARTEN,PREK-K,,3,PRIVATE,162
-8368339.98710512,4861587.39155292,126515001,3618,2210,BACHE-MARTIN SCHOOL,BACHE-MARTIN SCHOOL,2201 BROWN ST,19130,(215) 400-7550,ELEMENTARY/MIDDLE,K-8,581,1,DISTRICT,163
-8354820.64835717,4879321.36625519,126515001,6824,8160,BALDI MIDDLE SCHOOL,BALDI SCHOOL,8801 VERREE RD,19115,(215) 400-3090,MIDDLE SCHOOL,6-8,1509,1,DISTRICT,164
-8375523.05862546,4860766.69251824,126515001,8029,1200,"BARRY, JOHN ELEMENTARY SCHOOL",JOHN BARRY SCHOOL,5900 RACE ST,19139,(215) 400-7640,ELEMENTARY/MIDDLE,K-8,446,1,DISTRICT,165
-8362270.00943511,4868903.35877703,126515001,3732,7200,BARTON SCHOOL,CLARA BARTON SCHOOL,4600 ROSEHILL ST,19120,(215) 400-3720,ELEMENTARY SCHOOL,K-2,490,1,DISTRICT,166
-8374995.16127157,4854568.0028383,126515001,3847,1010,"BARTRAM, JOHN HIGH SCHOOL",JOHN BARTRAM HIGH SCHOOL,2401 S 67TH ST,19142,(215) 400-8100,HIGH SCHOOL,9-12,589,1,DISTRICT,167
-8365968.33907217,4856347.47553835,126515001,3659,2720,VARE-WASHINGTON ELEMENTARY,VARE-WASHINGTON SCHOOL,1198 S 5TH ST,19147,(215) 400-8120,ELEMENTARY/MIDDLE,K-8,343,1,DISTRICT,168
-8368352.10628285,4862502.48916893,126515001,,5180,VAUX HIGH SCHOOL,VAUX HIGH SCHOOL: A BIG PICTURE,2300 W MASTER ST,19121,(267) 507-9690,HIGH SCHOOL,9-12,287,1,DISTRICT,169
-8366848.04300071,4861307.94546017,126510004,7685,3335,PEOPLE FOR PEOPLE,PEOPLE FOR PEOPLE CHARTER SCHOOL,800 N BROAD ST,19130,(215) 763-7060,ELEMENTARY/MIDDLE/HIGH,K-12,547,2,CHARTER,170
-8372976.34471396,4860329.62834269,,,2530,PHILADELPHIA JUVENILE JUSTICE SERVICES CENTER,PHILADELPHIA JUVENILE JUSTICE SERVICES CENTER SCHOOL,91 N 48TH ST,19139,(215) 683-3495,ELEMENTARY/MIDDLE/HIGH,K-12,184,1,DISTRICT,171
-8363020.18931688,4868128.86040856,126515001,,8470,PHILADELPHIA LEARNING ACADEMY-NORTH,PHILADELPHIA LEARNING ACADEMY NORTH,4224 N FRONT ST,19140,(215) 400-9050,MIDDLE/HIGH,8-12,74,1,DISTRICT,172
-8372388.87635943,4861504.95499487,126515001,8121,8460,PHILADELPHIA LEARNING ACADEMY-WEST,PHILADELPHIA LEARNING ACADEMY WEST,4300 WESTMINSTER AVE,19104,(215) 400-9080,HIGH SCHOOL,9-12,101,1,DISTRICT,173
-8356382.94161344,4865981.97271927,126515001,3745,7470,BRIDESBURG SCHOOL,BRIDESBURG SCHOOL,2824 JENKS ST,19137,(215) 400-7240,ELEMENTARY/MIDDLE,K-8,525,1,DISTRICT,174
-8363138.66820571,4863995.33027942,126515001,3684,5210,"BROWN, HENRY A. SCHOOL",HENRY A. BROWN SCHOOL,1946 E SERGEANT ST,19125,(215) 400-7490,ELEMENTARY/MIDDLE,K-8,334,1,DISTRICT,175
-8351703.07439792,4872260.15576555,126515001,6529,8210,"BROWN, JOSEPH H. SCHOOL",JOSEPH H. BROWN SCHOOL,3600 STANWOOD ST,19136,(215) 400-3320,ELEMENTARY/MIDDLE,K-8,442,1,DISTRICT,176
-8376075.1186043,4859084.39227492,126515001,3601,1230,"BRYANT, WILLIAM C. SCHOOL",WILLIAM C. BRYANT SCHOOL,6001 CEDAR AVE,19143,(215) 400-7910,ELEMENTARY/MIDDLE,K-8,301,1,DISTRICT,177
-8365935.91681192,4873738.85367409,126515001,8332,5610,BUILDING 21,BUILDING 21,6501 LIMEKILN PIKE,19138,(215) 400-7450,HIGH SCHOOL,9-12,371,1,DISTRICT,178
-8358328.45409592,4871605.02052226,126515001,7230,7220,"CARNELL, LAURA H. SCHOOL",LAURA H. CARNELL SCHOOL,1100 DEVEREAUX AVE,19111,(215) 400-3150,ELEMENTARY SCHOOL,K-5,645,1,DISTRICT,179
-8376877.10034645,4862339.90262002,126515001,3664,4240,"CASSIDY,LEWIS C ACADEMICS PLUS",LEWIS C. CASSIDY ACADEMICS PLUS SCHOOL,6523 LANSDOWNE AVE,19151,(215) 400-7510,ELEMENTARY/MIDDLE,K-8,306,1,DISTRICT,180
-8375668.57980645,4855402.92787034,126515001,3602,1250,"CATHARINE, JOSEPH SCHOOL",JOSEPH W. CATHARINE SCHOOL,6600 CHESTER AVE,19142,(215) 400-8150,ELEMENTARY SCHOOL,K-5,400,1,DISTRICT,181
-8363996.36361363,4868531.3063978,126515001,7404,5490,CAYUGA SCHOOL,CAYUGA SCHOOL,4344 N 5TH ST,19140,(215) 400-3850,ELEMENTARY SCHOOL,K-5,361,1,DISTRICT,182
-8365671.70328036,4871368.36957484,126515001,3848,6010,CENTRAL HIGH SCHOOL,CENTRAL HIGH SCHOOL,1700 W OLNEY AVE,19141,(215) 400-3590,HIGH SCHOOL,9-12,2329,1,DISTRICT,183
-8367941.00348016,4856448.44761984,126515001,3622,2260,"CHILDS, GEORGE W. SCHOOL",GEORGE W. CHILDS SCHOOL,1599 WHARTON ST,19146,(215) 400-7950,ELEMENTARY/MIDDLE,K-8,437,1,DISTRICT,184
-8363403.95492165,4866933.2474501,126515001,6767,7730,"CLEMENTE, ROBERTO MIDDLE SCHOOL",ROBERTO CLEMENTE SCHOOL,122 W ERIE AVE,19140,(215) 400-3930,MIDDLE SCHOOL,6-8,260,1,DISTRICT,185
-8373038.99080365,4857302.56894084,126515001,3782,1260,"COMEGYS, BENJAMIN B. SCHOOL",BENJAMIN B. COMEGYS SCHOOL,5100 GREENWAY AVE,19143,(215) 400-7860,ELEMENTARY/MIDDLE,K-8,252,1,DISTRICT,186
-8349975.79642921,4883536.16500378,126515001,3760,8370,"COMLY, WATSON SCHOOL",WATSON COMLY SCHOOL,1001 BYBERRY RD,19116,(215) 400-3010,ELEMENTARY SCHOOL,K-5,618,1,DISTRICT,187
-8369198.91370089,4855716.04969826,126515001,3629,2370,"MCDANIEL, DELAPLAINE SCHOOL",DELAPLAINE MCDANIEL SCHOOL,1801 S 22ND ST,19145,(215) 400-8220,ELEMENTARY/MIDDLE,K-8,230,1,DISTRICT,188
-8364685.53835335,4863479.64298023,126515001,5293,5350,"MCKINLEY, WILLIAM SCHOOL",WILLIAM MCKINLEY SCHOOL,2101 N ORKNEY ST,19122,(215) 400-7440,ELEMENTARY/MIDDLE,K-8,285,1,DISTRICT,189
-8367298.13335246,4862831.08837938,126515001,3630,4570,"MEADE, GEN. GEORGE G. SCHOOL",GENERAL GEORGE G. MEADE SCHOOL,1600 N 18TH ST,19121,(215) 400-7310,ELEMENTARY/MIDDLE,K-8,291,1,DISTRICT,190
-8365770.866017,4857178.02403517,126515001,3649,2380,"MEREDITH, WILLIAM M. SCHOOL",WILLIAM M. MEREDITH SCHOOL,725 S 5TH ST,19147,(215) 400-7990,ELEMENTARY/MIDDLE,K-8,556,1,DISTRICT,191
-8370291.62862998,4867908.61112898,126515001,3720,6320,"MIFFLIN, THOMAS SCHOOL",THOMAS MIFFLIN SCHOOL,3624 CONRAD ST,19129,(215) 400-3830,ELEMENTARY/MIDDLE,K-8,360,1,DISTRICT,192
-8373861.6606373,4856765.63500957,126515001,3798,1370,MITCHELL ELEMENTARY SCHOOL,S. WEIR MITCHELL SCHOOL,5500 KINGSESSING AVE,19143,(215) 400-7880,ELEMENTARY/MIDDLE,K-8,287,1,DISTRICT,193
-8364091.5254001,4862271.09695751,126515001,3697,5370,"MOFFET, JOHN SCHOOL",JOHN MOFFET SCHOOL,127 W OXFORD ST,19122,(215) 400-7390,ELEMENTARY SCHOOL,K-5,218,1,DISTRICT,194
-8357523.61421824,4873085.01494723,126515001,3770,8310,"MOORE, J. HAMPTON SCHOOL",J. HAMPTON MOORE SCHOOL,6900 SUMMERDALE AVE,19111,(215) 400-3180,ELEMENTARY SCHOOL,K-5,1194,1,DISTRICT,195
-8368850.14973309,4862373.78350068,126515001,4868,2390,"MORRIS, ROBERT SCHOOL",ROBERT MORRIS SCHOOL,2600 W THOMPSON ST,19121,(215) 400-7320,ELEMENTARY/MIDDLE,K-8,215,1,DISTRICT,196
-8363378.31074835,4870230.20918896,126515001,3749,7390,"MORRISON, ANDREW J. SCHOOL",ANDREW J. MORRISON SCHOOL,5100 N 3RD ST,19120,(215) 400-3780,ELEMENTARY/MIDDLE,K-8,512,1,DISTRICT,197
-8374220.64979587,4854855.85619859,126515001,6535,1380,"MORTON, THOMAS G. SCHOOL",THOMAS G. MORTON SCHOOL,2501 S 63RD ST,19142,(215) 400-8160,ELEMENTARY SCHOOL,K-5,356,1,DISTRICT,198
-8375883.78493598,4857885.09039236,126515001,7815,1190,MOTIVATION HIGH SCHOOL,MOTIVATION HIGH SCHOOL,5900 BALTIMORE AVE,19143,(215) 400-7930,HIGH SCHOOL,9-12,201,1,DISTRICT,199
-8364051.42699843,4866110.83220068,126515001,7522,5680,"MUNOZ-MARIN, HON LUIS SCHOOL",HONORABLE LUIS MUNOZ-MARIN SCHOOL,3300 N 3RD ST,19140,(215) 400-3920,ELEMENTARY/MIDDLE,K-8,499,1,DISTRICT,200
-8372986.20240707,4860775.55348688,126515001,7022,1580,MYA-MIDDLE YEARS ALTERNATIVE,MIDDLE YEARS ALTERNATIVE SCHOOL,4725 FAIRMOUNT AVE,19139,(215) 400-7720,MIDDLE SCHOOL,5-8,128,1,DISTRICT,201
-8366086.08677665,4856747.08413949,126515001,3650,2590,"NEBINGER, GEORGE W. SCHOOL",GEORGE W. NEBINGER SCHOOL,601 CARPENTER ST,19147,(215) 400-8110,ELEMENTARY/MIDDLE,K-8,374,1,DISTRICT,202
-8367067.2622713,4860279.65874787,126515001,,8780,PHILADELPHIA VIRTUAL ACADEMY,PHILADELPHIA VIRTUAL ACADEMY,440 N BROAD ST,19130,(215) 400-3110,ELEMENTARY/MIDDLE/HIGH,K-12,921,1,DISTRICT,203
-8352033.65645882,4874630.70034247,126515001,3801,8410,"POLLOCK, ROBERT B. SCHOOL",ROBERT B. POLLOCK SCHOOL,2875 WELSH RD,19152,(215) 400-3210,ELEMENTARY/MIDDLE,K-8,845,1,DISTRICT,204
-8366196.0449677,4853906.66411627,126515001,3657,2690,"TAGGART, JOHN H. SCHOOL",JOHN H. TAGGART SCHOOL,400 W PORTER ST,19148,(215) 400-8290,ELEMENTARY/MIDDLE,K-8,484,1,DISTRICT,205
-8364339.53145761,4866969.85472871,126515001,3755,7440,"TAYLOR, BAYARD SCHOOL",BAYARD TAYLOR SCHOOL,3698 N RANDOLPH ST,19140,(215) 400-3880,ELEMENTARY SCHOOL,K-5,395,1,DISTRICT,206
-8363403.95492165,4866933.2474501,126515001,,5660,THE LINC,THE LINC,122 W ERIE AVE,19140,(215) 400-3940,HIGH SCHOOL,9-12,223,1,DISTRICT,207
-8365242.95296283,4863324.44344623,126515001,,5620,THE U SCHOOL,THE U SCHOOL,2000 N 7TH ST,19122,(215) 400-7460,HIGH SCHOOL,9-12,195,1,DISTRICT,208
-8373291.05050507,4859449.57718862,126515001,8328,8560,THE WORKSHOP SCHOOL,THE WORKSHOP SCHOOL,221 S HANSON ST,19139,(215) 400-7730,HIGH SCHOOL,9-12,214,1,DISTRICT,209
-8374827.79164685,4854525.66007651,126515001,3832,1130,TILDEN MIDDLE SCHOOL,WILLIAM T. TILDEN SCHOOL,6601 ELMWOOD AVE,19142,(215) 400-8170,MIDDLE SCHOOL,5-8,266,1,DISTRICT,210
-8367383.37630611,4857142.84860814,126515001,6996,2020,CREATIVE AND PERFORMING ARTS,HIGH SCHOOL FOR CREATIVE AND PERFORMING ARTS SCHOOL,901 S BROAD ST,19147,(215) 400-8140,HIGH SCHOOL,9-12,646,1,DISTRICT,211
-8371843.63984655,4861690.0800677,126513070,7557,3308,BELMONT ACADEMY CHARTER SCHOOL,BELMONT ACADEMY CHARTER SCHOOL,907 N 41ST ST,19104,(215) 386-5768,ELEMENTARY SCHOOL,PREK-K,240,2,CHARTER,212
-8350867.12064505,4881194.14798192,,,3322,PHILADELPHIA ACADEMY CHARTER SCHOOL (ANNEX),PHILADELPHIA ACADEMY CHARTER SCHOOL,1700 TOMLINSON RD,19116,(215) 673-3990,HIGH SCHOOL,9-12,,2,CHARTER,213
-8352103.46818496,4878780.35761779,126515001,3803,8400,"FRANK, ANNE SCHOOL",ANNE FRANK SCHOOL,2000 BOWLER ST,19115,(215) 400-3070,ELEMENTARY SCHOOL,K-5,1622,1,DISTRICT,214
-8358441.03141207,4869085.88312867,126515001,3850,7010,FRANKFORD HIGH SCHOOL,FRANKFORD HIGH SCHOOL,5000 OXFORD AVE,19124,(215) 400-7200,HIGH SCHOOL,9-12,911,1,DISTRICT,215
-8367079.39054615,4860864.59448858,126515001,6822,2290,FRANKLIN LEARNING CENTER,FRANKLIN LEARNING CENTER,616 N 15TH ST,19130,(215) 400-7570,HIGH SCHOOL,9-12,918,1,DISTRICT,216
-8366955.49192046,4860643.97291605,126515001,3851,2010,"FRANKLIN, BENJAMIN HIGH SCHOOL",BENJAMIN FRANKLIN HIGH SCHOOL,550 N BROAD ST,19130,(215) 400-7600,HIGH SCHOOL,9-12,570,1,DISTRICT,217
-8360571.66182844,4872112.66117936,126515001,7231,7280,"FRANKLIN, BENJAMIN SCHOOL",BENJAMIN FRANKLIN SCHOOL,5737 RISING SUN AVE,19120,(215) 400-3760,ELEMENTARY/MIDDLE,K-8,571,1,DISTRICT,218
-8365724.85498481,4854869.7579139,126515001,3818,2160,"FURNESS, HORACE HIGH SCHOOL",FURNESS HIGH SCHOOL,1900 S 3RD ST,19148,(215) 400-8300,HIGH SCHOOL,9-12,896,1,DISTRICT,219
-8369084.29708192,4863671.94516512,126515001,3625,4530,"GIDEON, EDWARD SCHOOL",EDWARD GIDEON SCHOOL,2817 W GLENWOOD AVE,19121,(215) 400-7360,ELEMENTARY/MIDDLE,K-8,205,1,DISTRICT,220
-8369328.4240552,4854589.55061291,126515001,7664,2410,GIRARD ACADEMIC MUSIC PROGRAM,GIRARD ACADEMIC MUSIC PROGRAM,2136 W RITNER ST,19145,(215) 400-8230,MIDDLE/HIGH,5-12,635,1,DISTRICT,221
-8368644.25987686,4854985.08814399,126515001,3776,2320,"GIRARD, STEPHEN SCHOOL",STEPHEN GIRARD SCHOOL,1800 SNYDER AVE,19145,(215) 400-8180,ELEMENTARY SCHOOL,K-4,297,1,DISTRICT,222
-8365128.20028115,4871568.36715476,126515001,3843,6050,"GIRLS, PHILA HIGH SCHOOL FOR",PHILADELPHIA HIGH SCHOOL FOR GIRLS,1400 W OLNEY AVE,19141,(215) 400-3700,HIGH SCHOOL,9-12,596,1,DISTRICT,223
-8375470.66159347,4864860.43810574,126515001,3668,4280,"GOMPERS, SAMUEL SCHOOL",SAMUEL GOMPERS SCHOOL,5701 WYNNEFIELD AVE,19131,(215) 400-7250,ELEMENTARY/MIDDLE,K-8,238,1,DISTRICT,224
-8369393.57922983,4867737.37880658,,,3327,LAB SCH OF COMMUNICAT'N & LANG (East Falls Campus),LABORATORY CHARTER SCHOOL OF COMMUNICATION AND LANGUAGES (EAST FALLS),3300 HENRY AVE,19129,(267) 817-4720,MIDDLE SCHOOL,6-8,,2,CHARTER,225
-8372235.87289622,4860694.75731088,226518062,,,OUR MOTHER OF SORROWS/ST IGNATIUS OF LOYOLA SCHOOL,OUR MOTHER OF SORROWS/ST IGNATIUS OF LOYOLA SCHOOL,617 N 43RD ST,19104,(215) 222-3626,ELEMENTARY/MIDDLE,K-8,,3,PRIVATE,226
-8347609.07784358,4877676.66941067,126515001,,8320,JOHN HANCOCK DEMONSTRATION MIDDLE SCHOOL- LABRUM CAMPUS,JOHN HANCOCK DEMONSTRATION MIDDLE SCHOOL- LABRUM CAMPUS,10800 HAWLEY RD,19154,(215) 400-3122,MIDDLE SCHOOL,6-8,,1,DISTRICT,227
-8367380.64851571,4863015.57548659,,,3374,ALLIANCE FOR PROGRESS CHARTER SCHOOL (ANNEX),ALLIANCE FOR PROGRESS CHARTER SCHOOL (ANNEX),1821 CECIL B MOORE AVE,19121,(215) 232-4892,MIDDLE SCHOOL,6-8,,2,CHARTER,228
-8366556.54755581,4858887.05266147,126511530,,,FREIRE CHARTER SCHOOL,FREIRE CHARTER SCHOOL,1026 MARKET ST,19107,(267) 670-7499,MIDDLE SCHOOL,5-8,,2,CHARTER,229
-8374463.42721816,4854688.8829995,,,3810,ONE BRIGHT RAY-ELMWOOD CAMPUS,ONE BRIGHT RAY - ELMWOOD CAMPUS,6404 ELMWOOD AVE,19142,(215) 488-1177,HIGH SCHOOL,9-12,124,1,CONTRACTED,230
-8364328.21061574,4865096.61125193,,,8190,ONE BRIGHT RAY-FAIRHILL CAMPUS,ONE BRIGHT RAY - FAIRHILL CAMPUS,2820 N 4TH ST,19133,(215) 423-1776,HIGH SCHOOL,9-12,262,1,CONTRACTED,231
-8360717.25461782,4866709.58444386,,,8890,ONE BRIGHT RAY-SIMPSON CAMPUS,ONE BRIGHT RAY - SIMPSON CAMPUS,1142 E ERIE AVE,19124,(215) 744-6000,HIGH SCHOOL,9-12,261,1,CONTRACTED,232
-8365889.04576494,4870426.77557381,126515001,3718,6300,"LOGAN, JAMES SCHOOL",JAMES LOGAN SCHOOL,1700 LINDLEY AVE,19141,(215) 400-3670,ELEMENTARY SCHOOL,K-5,231,1,DISTRICT,233
-8367538.91104916,4873991.37354468,300513890,,,GREEN TREE SCHOOL,GREEN TREE SCHOOL,1196 E WASHINGTON LN,19138,(215) 866-0200,SPECIAL CENTER,UNGRADED,,3,PRIVATE,234
-8367393.4450421,4856372.68412395,,,3369,CHRISTOPHER COLUMBUS CHARTER SCHOOL (ANNEX),CHRISTOPHER COLUMBUS CHARTER SCHOOL (SOUTH),1242 S 13TH ST,19147,(215) 389-6000,MIDDLE SCHOOL,5-8,,2,CHARTER,235
-8374836.62270303,4857329.33196155,126515001,6533,1350,"LONGSTRETH, WILLIAM C. SCHOOL",WILLIAM C. LONGSTRETH SCHOOL,5700 WILLOWS AVE,19143,(215) 400-7870,ELEMENTARY/MIDDLE,K-8,278,1,DISTRICT,236
-8372578.26170492,4869754.00774866,326514508,,,CB COMMUNITY SCHOOLS,CB COMMUNITY SCHOOLS,4101 FREELAND AVE,19128,(267) 766-3130,HIGH SCHOOL,9-12,,3,PRIVATE,237
-8368591.78800219,4861812.250341,226517510,,,CITY SCHOOL AT FAIRMOUNT,THE CITY SCHOOL AT FAIRMOUNT,860 N 24TH ST,19130,(215) 769-5363,ELEMENTARY SCHOOL,PREK-5,,3,PRIVATE,238
-8363020.71865876,4868191.49087229,326512995,,,COMMUNITY COUNCIL LEARNING ACADEMY,COMMUNITY COUNCIL LEARNING ACADEMY,4224 N FRONT ST,19140,(215) 845-2670,ELEMENTARY/MIDDLE/HIGH,1-12,,3,PRIVATE,239
-8373327.31821086,4871322.18901747,226514088,,,ROXBOROUGH CHRISTIAN SCHOOL,ROXBOROUGH CHRISTIAN SCHOOL,6301 RIDGE AVE,19128,(267) 804-5715,ELEMENTARY SCHOOL,PREK-4,,3,PRIVATE,240
-8373407.88010954,4869599.68500077,326510179,,,YALE SCHOOL OF PHILADELPHIA,YALE SCHOOL OF PHILADELPHIA,135 RECTOR ST,19127,(215) 839-0525,ELEMENTARY/MIDDLE/HIGH,K-12,,3,PRIVATE,241
-8366878.75656748,4857331.38460986,226518471,,,PHILLY AGILE LEARNING COMMUNITY SCHOOL,PHILLY AGILE LEARNING COMMUNITY SCHOOL,756 S 11TH ST,19147,(484) 816-7788,ELEMENTARY/MIDDLE/HIGH,K-12,,3,PRIVATE,242
-8364152.16362405,4868772.42773247,226513821,,,VOCATIO CAREER PREP HIGH SCHOOL,VOCATIO CAREER PREP HIGH SCHOOL,4455 N 6TH ST,19140,(267) 603-3093,HIGH SCHOOL,9-12,,3,PRIVATE,243
-8356190.58132202,4867075.9622983,126513450,7666,3331,FRANKLIN TOWNE CHARTER SCHOOL,FRANKLIN TOWNE CHARTER HIGH SCHOOL,5301 TACONY ST,19137,(215) 289-5000,HIGH SCHOOL,9-12,1292,2,CHARTER,244
-8357280.08489802,4865290.69684029,147513703,8123,3403,FRANKLIN TOWNE ELEMENTARY,FRANKLIN TOWNE CHARTER ELEMENTARY SCHOOL,4259 RICHMOND ST,19137,(215) 289-3389,ELEMENTARY/MIDDLE,K-8,963,2,CHARTER,245
-8368378.44334186,4859038.17107351,126513270,7586,3318,FREIRE CHARTER SCHOOL,FREIRE CHARTER SCHOOL,2027 CHESTNUT ST,19103,(215) 557-8555,HIGH SCHOOL,9-12,1020,2,CHARTER,246
-8374215.56327485,4859162.18937481,126518004,,3428,G.L.A. CHARTER @ HUEY,GLOBAL LEADERSHIP ACADEMY AT HUEY,5200 PINE ST,19143,(215) 471-2978,ELEMENTARY/MIDDLE,K-8,589,2,CHARTER,247
-8367510.76126762,4860543.13565021,,,8100,GATEWAY TO COLLEGE,GATEWAY TO COLLEGE - COMMUNITY COLLEGE OF PHILADELPHIA,1700 SPRING GARDEN ST RM M1-24,19130,(215) 751-8540,HIGH SCHOOL,9-12,88,1,CONTRACTED,248
-8372955.99175233,4862064.96256463,126513380,7639,3337,GLOBAL LEADERSHIP ACADEMY,GLOBAL LEADERSHIP ACADEMY CHARTER SCHOOL,4601 W GIRARD AVE,19131,(215) 477-6672,ELEMENTARY/MIDDLE,K-8,691,2,CHARTER,249
-8375010.18288546,4872206.57088856,126510005,7748,3365,GREEN WOODS CHARTER SCHOOL,GREEN WOODS CHARTER SCHOOL,468 DOMINO LN,19128,(215) 482-6337,ELEMENTARY/MIDDLE,K-8,703,2,CHARTER,250
-8377043.87885711,4862049.6204673,126512850,7511,3302,HARAMBEE INSTITUTE OF SCIENCE,HARAMBEE INSTITUTE OF SCIENCE AND TECHNOLOGY CHARTER SCHOOL,640 N 66TH ST,19151,(215) 472-8770,ELEMENTARY/MIDDLE,K-8,574,2,CHARTER,251
-8374169.77419802,4857453.85895945,126513290,7588,3323,MASTERY CHARTER AT HARDY WILLIAMS,MASTERY CHARTER SCHOOL AT HARDY WILLIAMS,5400 WARRINGTON AVE,19143,(215) 724-2343,ELEMENTARY/MIDDLE/HIGH,K-12,1251,2,CHARTER,252
-8361527.9140546,4863932.481839,126519392,8257,3423,MEMPHIS ST. CHARTER @ JP JONES,MEMPHIS STREET ACADEMY CHARTER SCHOOL AT J.P. JONES,2950 MEMPHIS ST,19134,(215) 291-4709,MIDDLE SCHOOL,5-8,492,2,CHARTER,253
-8365699.23568854,4867602.58354671,126513000,7546,3312,MULTI-CULTURAL ACADEMY,MULTICULTURAL ACADEMY CHARTER SCHOOL,3821 N BROAD ST,19140,(215) 457-6666,HIGH SCHOOL,9-12,255,2,CHARTER,254
-8351654.29395447,4871039.86587045,126513420,7649,3334,NEW FOUNDATIONS CHARTER SCHOOL,NEW FOUNDATIONS CHARTER SCHOOL,8001 TORRESDALE AVE,19136,(215) 624-8100,ELEMENTARY/MIDDLE,K-8,1529,2,CHARTER,255
-8356874.16148602,4874065.49727534,,,3850,NORTHEAST HIGH SCHOOL EOP,NORTHEAST HIGH SCHOOL EOP,1601 COTTMAN AVE,19111,(215) 400-3200,HIGH SCHOOL,9-12,177,1,DISTRICT,256
-8359506.74606957,4868901.37938692,126510019,7856,3386,NORTHWOOD CHARTER SCHOOL,NORTHWOOD ACADEMY CHARTER SCHOOL,4621 CASTOR AVE,19124,(215) 289-5606,ELEMENTARY/MIDDLE,K-8,796,2,CHARTER,257
-8365106.88532187,4859893.41118965,,,8070,OIC CADI,OIC CADI,444 N 3RD ST,19123,(215) 567-2410,HIGH SCHOOL,9-12,147,1,CONTRACTED,258
-8374709.15084681,4863851.05196611,126519433,8152,3408,MASTERY CHARTER @ MANN,MASTERY CHARTER SCHOOL AT MANN,5376 W BERKS ST,19131,(215) 581-5516,ELEMENTARY SCHOOL,K-6,574,2,CHARTER,259
-8366931.44691164,4872950.20959715,126518795,3721,3426,MASTERY CHARTER @ PASTORIUS,MASTERY CHARTER SCHOOL AT PASTORIUS,5650 SPRAGUE ST,19138,(215) 951-5689,ELEMENTARY/MIDDLE,K-8,645,2,CHARTER,260
-8369078.21327894,4870613.33149197,151514721,7961,3393,MASTERY CHARTER @ PICKETT,MASTERY CHARTER SCHOOL AT PICKETT,5700 WAYNE AVE,19144,(215) 866-9000,MIDDLE/HIGH,6-12,923,2,CHARTER,261
-8370635.16110826,4859828.53260992,126515001,3783,1390,"POWEL, SAMUEL SCHOOL",SAMUEL POWEL SCHOOL,3610 WARREN ST,19104,(215) 400-7740,ELEMENTARY SCHOOL,K-4,326,1,DISTRICT,262
-8365610.81049224,4872877.41559336,126515001,6765,7490,PRINCE HALL SCHOOL,PRINCE HALL SCHOOL,6101 N GRATZ ST,19141,(215) 400-3690,ELEMENTARY SCHOOL,K-5,328,1,DISTRICT,263
-8368921.93847304,4867229.07372039,126515001,7813,6090,RANDOLPH TECHNICAL HIGH SCHOOL,A. PHILIP RANDOLPH CAREER AND TECHNICAL HIGH SCHOOL,3101 HENRY AVE,19129,(215) 400-3840,HIGH SCHOOL,9-12,440,1,DISTRICT,264
-8355428.54168876,4874476.23143882,126515001,3771,8360,RHAWNHURST SCHOOL,RHAWNHURST SCHOOL,7809 CASTOR AVE,19152,(215) 400-3220,ELEMENTARY SCHOOL,K-5,603,1,DISTRICT,265
-8361438.8055928,4864844.76101527,126515001,3842,5060,"MASTBAUM, JULES E. HIGH SCHOOL",JULES E. MASTBAUM AREA VOCATIONAL TECHNICAL HIGH SCHOOL,3116 FRANKFORD AVE,19134,(215) 400-7220,HIGH SCHOOL,9-12,651,1,DISTRICT,266
-8367411.09847699,4860632.48446378,126515001,3808,2140,"MASTERMAN,JULIA R. HIGH SCHOOL",JULIA R. MASTERMAN SCHOOL,1699 SPRING GARDEN ST,19130,(215) 400-7580,MIDDLE/HIGH,5-12,1182,1,DISTRICT,267
-8354741.55992485,4871660.98209993,126515001,3769,8300,MAYFAIR SCHOOL,MAYFAIR SCHOOL,3001 PRINCETON AVE,19149,(215) 400-3280,ELEMENTARY/MIDDLE,K-8,1766,1,DISTRICT,268
-8365923.17425626,4857894.69417228,126515001,3648,2340,"MC CALL, GEN. GEORGE A. SCHOOL",GENERAL GEORGE A. MCCALL SCHOOL,325 S 7TH ST,19106,(215) 400-7840,ELEMENTARY/MIDDLE,K-8,628,1,DISTRICT,269
-8364276.47705843,4868148.15022537,126515001,6534,7380,"MC CLURE, ALEXANDER K. SCHOOL",ALEXANDER K. MCCLURE SCHOOL,600 W HUNTING PARK AVE,19140,(215) 400-3870,ELEMENTARY SCHOOL,K-5,411,1,DISTRICT,270
-8370642.97803809,4861082.55327711,126515001,3611,1360,"MC MICHAEL, MORTON SCHOOL",MORTON MCMICHAEL SCHOOL,3543 FAIRMOUNT AVE,19104,(215) 400-7750,ELEMENTARY/MIDDLE,K-8,270,1,DISTRICT,271
-8368409.32712664,4877779.8710427,126515001,3719,6310,"MCCLOSKEY, JOHN F. SCHOOL",JOHN F. MCCLOSKEY SCHOOL,8500 PICKERING ST,19150,(215) 400-3380,ELEMENTARY/MIDDLE,K-8,231,1,DISTRICT,272
-8372403.42710521,4861509.94969295,,,3040,EXCEL MIDDLE YEARS ACADEMY,EXCEL MIDDLE YEARS ACADEMY,4300 WESTMINSTER AVE,19104,(215) 436-0307,MIDDLE SCHOOL,6-8,30,1,CONTRACTED,273
-8358135.22461686,4866988.60591433,100510000,7744,3364,FIRST PHILADELPHIA CHARTER,FIRST PHILADELPHIA PREPARATORY CHARTER SCHOOL,4300 TACONY ST,19124,(215) 743-3100,ELEMENTARY/MIDDLE/HIGH,K-12,1886,2,CHARTER,274
-8366341.29337856,4859983.68965024,126510021,7857,3384,FOLK ARTS CULTURAL TREASURES,FOLK ARTS-CULTURAL TREASURES CHARTER SCHOOL,1023 CALLOWHILL ST,19123,(215) 569-2600,ELEMENTARY/MIDDLE,K-8,503,2,CHARTER,275
-8366951.96704524,4860625.19622589,126515001,,3210,FRANKLIN HIGH SCHOOL EOP,BEN FRANKLIN HIGH SCHOOL EOP,550 N BROAD ST,19130,(215) 400-7600,HIGH SCHOOL,9-12,176,1,DISTRICT,276
-8375212.45392384,4858507.32247643,126516457,8153,3407,MASTERY CHARTER @ HARRITY,MASTERY CHARTER SCHOOL AT HARRITY,5601 CHRISTIAN ST,19143,(215) 471-2908,ELEMENTARY/MIDDLE,K-8,740,2,CHARTER,277
-8365129.01042798,4866148.22384963,126513110,7565,3310,LAB SCH OF COMMUNICAT'N & LANG,LABORATORY CHARTER SCHOOL OF COMMUNICATION AND LANGUAGES,926 W SEDGLEY AVE,19140,(215) 574-1680,ELEMENTARY SCHOOL,K-5,450,2,CHARTER,278
-8362201.04237039,4863278.7984776,,,3240,LIGUORI ACADEMY-FORTIS,THE FORTIS PROGRAM,2343 E TUCKER ST ,19125,(267) 571-1952,HIGH SCHOOL,9-12,86,1,CONTRACTED,279
-8364373.28993171,4870217.24898449,126519476,8206,3419,LINDLEY ACADEMY CHARTER @ BIRNEY,LINDLEY ACADEMY CHARTER @ BIRNEY,900 LINDLEY AVE,19141,(215) 456-3000,ELEMENTARY/MIDDLE,K-8,748,2,CHARTER,280
-8359414.57066909,4866760.54117926,126513480,7672,3332,MARIANA BRACETTI ACADEMY,MARIANA BRACETTI ACADEMY CHARTER SCHOOL,1840 TORRESDALE AVE,19124,(215) 291-4436,ELEMENTARY/MIDDLE/HIGH,K-12,1518,2,CHARTER,281
-8364096.94011795,4865142.49480583,173515368,7985,3394,PAN AMERICAN ACADEMY CHARTER,PAN AMERICAN ACADEMY CHARTER SCHOOL,2830 N AMERICAN ST,19133,(215) 425-1212,ELEMENTARY/MIDDLE,K-8,762,2,CHARTER,282
-8351218.0862042,4870438.29362371,,,8540,PENNYPACK HOUSE SCHOOL,PENNYPACK HOUSE SCHOOL,7901 STATE RD,19136,(215) 685-7752,HIGH SCHOOL,9-12,77,1,DISTRICT,283
-8355376.40064298,4879863.75985019,126515001,4726,8430,"GREENBERG, JOSEPH SCHOOL",JOSEPH GREENBERG SCHOOL,600 SHARON LN,19115,(215) 400-3080,ELEMENTARY/MIDDLE,K-8,925,1,DISTRICT,284
-8368709.00325851,4859009.04807283,126515001,5186,2470,"GREENFIELD, ALBERT M. SCHOOL",ALBERT M. GREENFIELD SCHOOL,2200 CHESTNUT ST,19103,(215) 400-7810,ELEMENTARY/MIDDLE,K-8,742,1,DISTRICT,285
-8363077.70704727,4863201.98146939,126515001,5120,5300,"HACKETT, HORATIO B. SCHOOL",HORATIO B. HACKETT SCHOOL,2161 E YORK ST,19125,(215) 400-7470,ELEMENTARY SCHOOL,K-5,366,1,DISTRICT,286
-8375182.33634449,4859468.76263544,126515001,5185,1290,"HAMILTON, ANDREW SCHOOL",ANDREW HAMILTON SCHOOL,5640 SPRUCE ST,19139,(215) 400-7650,ELEMENTARY/MIDDLE,K-8,348,1,DISTRICT,287
-8347758.76779112,4875737.47372756,126515001,5041,8770,HANCOCK DEMONSTRATION SCHOOL,JOHN HANCOCK DEMONSTRATION SCHOOL,3700 MORRELL AVE,19114,(215) 400-3120,ELEMENTARY/MIDDLE,K-5,895,1,DISTRICT,288
-8357261.88085519,4867819.51152609,126515001,7242,7110,"HARDING, WARREN G. MIDDLE SCHOOL",WARREN G. HARDING SCHOOL,2000 WAKELING ST,19124,(215) 400-3990,MIDDLE SCHOOL,6-8,570,1,DISTRICT,289
-8374631.53638303,4858296.47484229,126515001,6528,1300,"HARRINGTON, AVERY D. SCHOOL",AVERY D. HARRINGTON SCHOOL,5300 BALTIMORE AVE,19143,(215) 400-7920,ELEMENTARY/MIDDLE,K-8,272,1,DISTRICT,290
-8365100.66810905,4864379.6082738,126515001,5125,5320,"HARTRANFT, JOHN F. SCHOOL",JOHN F. HARTRANFT SCHOOL,720 W CUMBERLAND ST,19133,(215) 400-7090,ELEMENTARY/MIDDLE,K-8,310,1,DISTRICT,291
-8370845.85875575,4872666.60251414,126515001,3712,6250,"HENRY, CHARLES W. SCHOOL",CHARLES W. HENRY SCHOOL,601 CARPENTER LN,19119,(215) 400-3480,ELEMENTARY/MIDDLE,K-8,518,1,DISTRICT,292
-8374534.90219818,4862724.31421987,126515001,5187,4300,"HESTON, EDWARD SCHOOL",EDWARD HESTON SCHOOL,1621 N 54TH ST,19131,(215) 400-7290,ELEMENTARY/MIDDLE,K-8,215,1,DISTRICT,293
-8378628.14306265,4862394.4553104,126515001,7810,4320,"LAMBERTON,ROBERT E ELEMENTARY",ROBERT E. LAMBERTON SCHOOL,7501 WOODBINE AVE,19151,(215) 400-7530,ELEMENTARY/MIDDLE,K-8,327,1,DISTRICT,294
-8377097.42533924,4875000.83546522,126515001,7811,6540,LANKENAU HIGH SCHOOL,LANKENAU HIGH SCHOOL,201 SPRING LN,19128,(215) 400-3420,HIGH SCHOOL,9-12,228,1,DISTRICT,295
-8355526.9878138,4868943.24443518,126515001,3744,7330,"LAWTON, HENRY W. SCHOOL",HENRY W. LAWTON SCHOOL,6101 JACKSON ST,19135,(215) 400-3340,ELEMENTARY SCHOOL,K-5,541,1,DISTRICT,296
-8373045.44743071,4859334.72301167,126515001,6530,1340,"LEA, HENRY C.",HENRY C. LEA SCHOOL,4700 LOCUST ST,19139,(215) 400-7660,ELEMENTARY/MIDDLE,K-8,474,1,DISTRICT,297
-8353695.77197058,4872351.24234958,126515001,3845,8010,"LINCOLN, ABRAHAM HIGH SCHOOL",ABRAHAM LINCOLN HIGH SCHOOL,3201 RYAN AVE,19136,(215) 400-3300,HIGH SCHOOL,9-12,2439,1,DISTRICT,298
-8370079.62990104,4871364.30880687,126515001,3717,6440,"LINGELBACH, ANNA L. SCHOOL",ANNA L. LINGELBACH SCHOOL,6340 WAYNE AVE,19144,(215) 400-3630,ELEMENTARY/MIDDLE,K-8,364,1,DISTRICT,299
-8372610.05837607,4860448.59792042,126515001,4732,1470,"LOCKE, ALAIN SCHOOL",ALAIN LOCKE SCHOOL,4550 HAVERFORD AVE,19139,(215) 400-7670,ELEMENTARY/MIDDLE,K-8,264,1,DISTRICT,300
-8351593.16799007,4882523.59059695,126515001,4961,8440,"LOESCHE, WILLIAM H. SCHOOL",WILLIAM H. LOESCHE SCHOOL,595 TOMLINSON RD,19116,(215) 400-3020,ELEMENTARY SCHOOL,K-5,1224,1,DISTRICT,301
-8356843.52128189,4874061.24804913,126515001,3855,8020,NORTHEAST HIGH SCHOOL,NORTHEAST HIGH SCHOOL,1601 COTTMAN AVE,19111,(215) 400-3200,HIGH SCHOOL,9-12,3467,1,DISTRICT,302
-8362417.28955971,4870462.85968793,126515001,3750,7400,OLNEY ELEMENTARY SCHOOL,OLNEY SCHOOL,5301 N WATER ST,19120,(215) 400-3790,ELEMENTARY/MIDDLE,K-8,656,1,DISTRICT,303
-8377290.70177708,4862183.57153366,126515001,6960,4480,OVERBROOK EDUCATIONAL CENTER,OVERBROOK EDUCATIONAL CENTER,6722 LANSDOWNE AVE,19151,(215) 400-7540,ELEMENTARY/MIDDLE,K-8,260,1,DISTRICT,304
-8373459.11058878,4861197.20650753,126515001,3614,1410,"RHOADS, JAMES SCHOOL",JAMES RHOADS SCHOOL,4901 PARRISH ST,19139,(215) 400-7680,ELEMENTARY/MIDDLE,K-8,419,1,DISTRICT,305
-8368791.12696104,4866342.7733183,126515001,6522,4350,RHODES ELEMENTARY SCHOOL,E. WASHINGTON RHODES SCHOOL,2900 W CLEARFIELD ST,19132,(215) 400-7060,ELEMENTARY/MIDDLE,K-8,355,1,DISTRICT,306
-8361261.61128517,4863544.25300449,126515001,3701,5400,RICHMOND SCHOOL,RICHMOND SCHOOL,2944 BELGRADE ST,19134,(215) 400-7150,ELEMENTARY SCHOOL,K-5,352,1,DISTRICT,307
-8371842.07061404,4859691.52454668,126515001,7780,1050,"ROBESON, PAUL HIGH SCHOOL",PAUL ROBESON HIGH SCHOOL FOR HUMAN SERVICES,4125 LUDLOW ST,19104,(215) 400-7780,HIGH SCHOOL,9-12,266,1,DISTRICT,308
-8368449.07121773,4872954.6055127,126515001,3824,6360,ROOSEVELT ELEMENTARY SCHOOL,THEODORE ROOSEVELT SCHOOL,430 E WASHINGTON LN,19144,(215) 400-3640,ELEMENTARY/MIDDLE,K-8,402,1,DISTRICT,309
-8365500.10928162,4874483.31920876,126515001,3724,7530,"ROWEN, WILLIAM SCHOOL",WILLIAM ROWEN SCHOOL,6841 N 19TH ST,19126,(215) 400-3550,ELEMENTARY SCHOOL,K-5,294,1,DISTRICT,310
-8373766.13552609,4871410.71661039,126515001,3844,6030,ROXBOROUGH HIGH SCHOOL,ROXBOROUGH HIGH SCHOOL,6498 RIDGE AVE,19128,(215) 400-3400,HIGH SCHOOL,9-12,613,1,DISTRICT,311
-8373620.9672107,4873119.56271179,126515001,3861,6040,"SAUL, WALTER B. HIGH SCHOOL",WALTER B. SAUL HIGH SCHOOL,7100 HENRY AVE,19128,(215) 400-3450,HIGH SCHOOL,9-12,416,1,DISTRICT,312
-8368054.05446101,4854008.11755016,126513400,7647,3336,PHILADELPHIA PERFORMING ARTS-BROAD ST,PHILADELPHIA PERFORMING ARTS: A STRING THEORY CHARTER SCHOOL,2600 S BROAD ST,19145,(215) 551-4000,ELEMENTARY SCHOOL,2-5,2610,2,CHARTER,313
-8350051.20565217,4881023.76147318,126513280,7587,3322,PHILADELPHIA ACADEMY,PHILADELPHIA ACADEMY CHARTER SCHOOL,11000 ROOSEVELT BLVD,19116,(215) 676-8320,ELEMENTARY/MIDDLE/HIGH,K-8,1155,2,CHARTER,314
-8358601.67817651,4869547.39224365,126515691,,3422,PHILADELPHIA CHARTER FOR ARTS,THE PHILADELPHIA CHARTER SCHOOL FOR ARTS AND SCIENCES,1197 HAWORTH ST,19124,(215) 537-2520,ELEMENTARY/MIDDLE,K-8,906,2,CHARTER,315
-8367687.88281931,4859623.69895612,126510009,7737,3358,PHILADELPHIA ELECTRICAL AND TECHNOLOGY CHARTER SCHOOL,PHILADELPHIA ELECTRICAL AND TECHNOLOGY CHARTER SCHOOL,1709 BENJAMIN FRANKLIN PKWY,19103,(267) 514-1823,HIGH SCHOOL,9-12,643,2,CHARTER,316
-8376252.14675363,4853825.03843282,126510016,7828,3378,PHILADELPHIA MONTESSORI,PHILADELPHIA MONTESSORI CHARTER SCHOOL,2227 ISLAND AVE,19142,(215) 365-4011,ELEMENTARY SCHOOL,K-6,228,2,CHARTER,317
-8366113.45842757,4865131.25910417,,,8450,YES PHILLY,YES PHILLY,2709 N BROAD ST,19132,(215) 769-0340,HIGH SCHOOL,9-12,121,1,CONTRACTED,318
-8365456.94169096,4861249.53023028,126513250,7584,3329,YOUNG SCHOLARS CHARTER SCHOOL,YOUNG SCHOLARS CHARTER SCHOOL,900 N MARSHALL ST,19123,(215) 232-9727,MIDDLE SCHOOL,6-8,268,2,CHARTER,319
-8366264.81865617,4864235.47816559,126512870,7513,3304,YOUTHBUILD PHILADELPHIA CHARTER,YOUTHBUILD PHILADELPHIA CHARTER SCHOOL,2309 N BROAD ST,19123,(215) 627-8671,HIGH SCHOOL,12,274,2,CHARTER,320
-8365281.02426658,4871277.72992504,126515001,3728,6400,WIDENER MEMORIAL SCHOOL,WIDENER MEMORIAL SCHOOL,1450 W OLNEY AVE,19141,(215) 400-3710,ELEMENTARY/MIDDLE/HIGH,K-12,143,1,DISTRICT,321
-8361899.56132168,4864976.18034815,126515001,6544,5440,"WILLARD, FRANCES E. SCHOOL",FRANCES E. WILLARD SCHOOL,1930 E ELKHART ST,19134,(215) 400-7180,ELEMENTARY SCHOOL,K-4,378,1,DISTRICT,322
-8356652.42778012,4873555.02984491,126515001,7253,8120,CASTOR GARDENS MIDDLE SCHOOL,CASTOR GARDENS MIDDLE SCHOOL,1800 COTTMAN AVE,19111,(215) 400-3190,MIDDLE SCHOOL,6-8,1318,1,DISTRICT,323
-8368720.63201588,4864528.6205577,126515001,,4470,"WRIGHT, RICHARD R. SCHOOL",RICHARD R. WRIGHT SCHOOL,2201 N 28TH ST,19132,(215) 400-7030,ELEMENTARY SCHOOL,K-5,215,1,DISTRICT,324
-8357352.09024212,4870319.06662299,126515001,7233,7460,"ZIEGLER, WILLIAM H. SCHOOL",WILLIAM H. ZIEGLER SCHOOL,5935 SAUL ST,19149,(215) 400-3260,ELEMENTARY/MIDDLE,K-8,522,1,DISTRICT,325
-8360419.65904262,4869773.47896006,,,3290,EXCEL ACADEMY SOUTH,EXCEL ACADEMY SOUTH,4641 ROOSEVELT BLVD,19124,(215) 904-6254,HIGH SCHOOL,9-12,209,1,CONTRACTED,326
-8357187.4292834,4868817.94380884,126517286,8151,3409,MASTERY CHARTER @ SMEDLEY,MASTERY CHARTER SCHOOL AT SMEDLEY,1790 BRIDGE ST,19124,(215) 537-2523,ELEMENTARY SCHOOL,K-6,757,2,CHARTER,327
-8367521.69931751,4870768.5601575,126518118,3731,3427,MASTERY CHARTER @ WISTER,MASTERY CHARTER SCHOOL AT WISTER,67 E BRINGHURST ST,19144,(215) 951-4003,ELEMENTARY SCHOOL,K-5,516,2,CHARTER,328
-8365327.35447813,4858610.38650704,126510002,7678,3361,MASTERY CHARTER-LENFEST CAMPUS,MASTERY CHARTER SCHOOL AT LENFEST,35 S 4TH ST,19106,(215) 922-1902,MIDDLE/HIGH,7-12,665,2,CHARTER,329
-8374391.30009421,4862426.07907002,126510022,7909,3383,MASTERY CHARTER-SHOEMAKER,MASTERY CHARTER SCHOOL AT SHOEMAKER,5301 MEDIA ST,19131,(267) 296-7111,MIDDLE/HIGH,7-12,713,2,CHARTER,330
-8367178.88252458,4853550.23254064,126510023,7910,3385,MASTERY CHARTER-THOMAS CAMPUS,MASTERY CHARTER SCHOOL AT THOMAS CAMPUS,927 JOHNSTON ST,19148,(267) 236-0036,ELEMENTARY?MIDDLE/HIGH,K-12,1315,2,CHARTER,331
-8366554.63056872,4864785.33084509,126514059,,3437,KIPP NORTH PHILADELPHIA CHARTER SCHOOL,KIPP NORTH PHILADELPHIA ACADEMY,2539 N 16TH ST,19132,(267) 758-2509,ELEMENTARY/MIDDLE,K-7,678,2,CHARTER,332
-8376537.64362278,4863706.69714501,126510015,7825,3379,AD PRIMA CHARTER SCHOOL,AD PRIMA CHARTER SCHOOL,1922 N 63RD ST,19151,(267) 403-2672,ELEMENTARY/MIDDLE,K-8,609,2,CHARTER,333
-8367212.24222604,4862932.48860932,126512990,7543,3315,ALLIANCE FOR PROGRESS CHARTER,ALLIANCE FOR PROGRESS CHARTER SCHOOL,"1722 CECIL B MOORE AVE
",19121,(215) 232-4892,ELEMENTARY SCHOOL,K-5,621,2,CHARTER,334
-8363528.30727026,4867849.24898893,104510394,8031,3395,ANTONIA PANTOJA CHARTER SCHOOL,ANTONIA PANTOJA CHARTER SCHOOL,4101 N AMERICAN ST,19140,(215) 329-2733,ELEMENTARY/MIDDLE,K-8,752,2,CHARTER,335
-8362948.48480614,4865757.71255509,133513315,8149,3406,JOHN B STETSON MIDDLE SCHOOL,JOHN B STETSON MIDDLE SCHOOL,3200 B ST,19134,(215) 400-9150,MIDDLE SCHOOL,5-8,538,1,DISTRICT,336
-8368155.68235929,4869591.60775678,126515001,5294,6470,"KELLY, JOHN B. SCHOOL",JOHN B. KELLY SCHOOL,5116 PULASKI AVE,19144,(215) 400-3580,ELEMENTARY SCHOOL,K-5,369,1,DISTRICT,337
-8366112.0765047,4866685.25919063,126515001,3795,4360,KENDERTON ELEMENTARY,KENDERTON ELEMENTARY SCHOOL,1500 W ONTARIO ST,19140,(215) 400-8340,ELEMENTARY/MIDDLE,K-8,302,1,DISTRICT,338
-8363812.52055007,4862644.95544023,126515001,7852,5520,KENSINGTON CAPA,KENSINGTON HIGH SCHOOL FOR CREATIVE AND PERFORMING ARTS,1901 N FRONT ST,19122,(215) 400-7400,HIGH SCHOOL,9-12,509,1,DISTRICT,339
-8363267.52429784,4863723.91321333,126515001,7855,5550,KENSINGTON HEALTH SCIENCES,KENSINGTON HEALTH SCIENCES ACADEMY,2463 EMERALD ST,19125,(215) 400-3600,HIGH SCHOOL,9-12,457,1,DISTRICT,340
-8363029.1515512,4863680.18061688,126515001,8143,5700,KENSINGTON HIGH SCHOOL,KENSINGTON HIGH SCHOOL,2051 E CUMBERLAND ST,19125,(215) 400-7700,HIGH SCHOOL,9-12,459,1,DISTRICT,341
-8366829.67156608,4854451.89064491,126515001,7228,2540,"KEY, FRANCIS SCOTT SCHOOL",FRANCIS S. KEY SCHOOL,2230 S 8TH ST,19148,(215) 400-8250,ELEMENTARY SCHOOL,K-6,371,1,DISTRICT,342
-8366959.70602715,4874150.58257146,126515001,6675,6060,"KING, MARTIN LUTHER HIGH SCHOOL",MARTIN LUTHER KING HIGH SCHOOL,6100 STENTON AVE,19138,(215) 400-3500,HIGH SCHOOL,9-12,546,1,DISTRICT,343
-8366379.52488859,4855778.1815634,126515001,3647,2580,"KIRKBRIDE, ELIZA B. SCHOOL",ELIZA B. KIRKBRIDE SCHOOL,1501 S 7TH ST,19147,(215) 400-7980,ELEMENTARY/MIDDLE,K-8,489,1,DISTRICT,344
-8376303.44700429,4863324.32759123,126515001,7472,4370,OVERBROOK ELEMENTARY SCHOOL,OVERBROOK ELEMENTARY SCHOOL,2032 N 62ND ST,19151,(215) 400-7520,ELEMENTARY/MIDDLE,K-8,200,1,DISTRICT,345
-8375517.74196595,4863185.70307058,126515001,3857,4020,OVERBROOK HIGH SCHOOL,OVERBROOK HIGH SCHOOL,5898 LANCASTER AVE,19131,(215) 400-7300,HIGH SCHOOL,9-12,441,1,DISTRICT,346
-8366693.50155056,4860567.72388109,126515001,7782,5080,PARKWAY CENTER CITY MIDDLE COLLEGE HIGH SCHOOL,PARKWAY CENTER CITY MIDDLE COLLEGE HIGH SCHOOL,540 N 13TH ST,19123,(215) 400-7620,HIGH SCHOOL,9-12,437,1,DISTRICT,347
-8372985.50791638,4860799.76446111,126515001,7808,5090,PARKWAY WEST HIGH SCHOOL,PARKWAY WEST HIGH SCHOOL,4725 FAIRMOUNT AVE,19139,(215) 400-7710,HIGH SCHOOL,9-12,151,1,DISTRICT,348
-8367348.49063361,4874149.28389357,126515001,6548,5070,PARKWAY-NORTHWEST HIGH SCHOOL,PARKWAY NORTHWEST HIGH SCHOOL,6200 CRITTENDEN ST,19138,(215) 400-3390,HIGH SCHOOL,9-12,239,1,DISTRICT,349
-8375318.03469988,4853756.91437253,126515001,3613,1400,"PATTERSON, JOHN M. SCHOOL",JOHN M. PATTERSON SCHOOL,7000 BUIST AVE,19142,(215) 400-8190,ELEMENTARY SCHOOL,K-4,336,1,DISTRICT,350
-8367698.77827737,4865742.03874976,126515001,3675,4380,"PEIRCE, THOMAS M. SCHOOL",THOMAS M. PEIRCE SCHOOL,2300 W CAMBRIA ST,19132,(215) 400-7020,ELEMENTARY SCHOOL,K-5,273,1,DISTRICT,351
-8372137.08032117,4859129.09284254,126515001,7706,1280,PENN ALEXANDER SCHOOL,SADIE ALEXANDER SCHOOL,4209 SPRUCE ST,19104,(215) 400-7760,ELEMENTARY/MIDDLE,K-8,595,1,DISTRICT,352
-8363116.6442247,4861977.11926099,126515001,7244,5160,PENN TREATY HIGH SCHOOL,PENN TREATY HIGH SCHOOL,600 E THOMPSON ST,19125,(215) 400-3800,MIDDLE/HIGH,6-12,403,1,DISTRICT,353
-8365746.72678858,4872250.18300667,126515001,3722,6340,"PENNELL, JOSEPH ELEMENTARY",JOSEPH PENNELL SCHOOL,1800 NEDRO AVE,19141,(215) 400-3680,ELEMENTARY SCHOOL,K-5,270,1,DISTRICT,354
-8366655.65188831,4875429.50153744,126515001,6539,6350,"PENNYPACKER, SAMUEL SCHOOL",SAMUEL PENNYPACKER SCHOOL,1858 E WASHINGTON LN,19138,(215) 400-3510,ELEMENTARY/MIDDLE,K-8,299,1,DISTRICT,355
-8376527.08580779,4852554.84687635,126515001,3616,1440,PENROSE SCHOOL,PENROSE SCHOOL,2515 S 78TH ST,19153,(215) 400-8310,ELEMENTARY/MIDDLE,K-8,361,1,DISTRICT,356
-8366153.53991151,4863822.04808477,126515001,7850,5050,PHILADELPHIA MILITARY ACADEMY,PHILADELPHIA MILITARY ACADEMY,2118 N 13TH ST,19122,(215) 400-7420,HIGH SCHOOL,9-12,277,1,DISTRICT,357
-8366387.32890382,4874130.29024164,326510173,,,EXCELSIOR SCHOOL OF PHILADELPHIA,EXCELSIOR SCHOOL OF PHILADELPHIA,2106 HAINES ST,19138,(267) 900-5494,ELEMENTARY SCHOOL,PREK-5,,3,PRIVATE,358
-8364795.00601687,4860569.51450268,326517786,,,QUADRAT ACADEMY,QUADRAT ACADEMY,222 BROWN ST,19123,(267) 997-7744,MIDDLE/HIGH,6-12,,3,PRIVATE,359
-8367317.55105461,4858446.72969977,326513292,,,REVOLUTION SCHOOL,REVOLUTION SCHOOL,230 S BROAD ST,19102,(215) 631-3697,HIGH SCHOOL,9-12,,3,PRIVATE,360
-8363407.50140057,4871952.72013552,226517319,,,SOPHIA ACADEMY,SOPHIA ACADEMY,5900 N 5TH ST,19120,(267) 595-4723,HIGH SCHOOL,9-12,,3,PRIVATE,361
-8363309.78555139,4871829.17597943,126515001,7232,7350,"LOWELL, JAMES R. SCHOOL",JAMES R. LOWELL SCHOOL,450 W NEDRO AVE,19120,(215) 400-3740,ELEMENTARY SCHOOL,K-4,469,1,DISTRICT,362
-8365200.44025461,4861958.25247439,126515001,3694,5340,"LUDLOW, JAMES R. SCHOOL",JAMES R. LUDLOW SCHOOL,550 W MASTER ST,19122,(215) 400-7430,ELEMENTARY/MIDDLE,K-8,216,1,DISTRICT,363
-8358701.28086186,4868074.35872503,126515001,3797,7360,"MARSHALL, JOHN SCHOOL",JOHN MARSHALL SCHOOL,4500 GRISCOM ST,19124,(215) 400-3950,ELEMENTARY SCHOOL,K-5,250,1,DISTRICT,364
-8363941.23453689,4870328.94806214,126515001,7521,5500,"MARSHALL, THURGOOD SCHOOL",THURGOOD MARSHALL SCHOOL,5120 N 6TH ST,19120,(215) 400-3770,ELEMENTARY/MIDDLE,K-8,604,1,DISTRICT,365
-8371626.86957763,4862347.02053062,126515001,7903,1030,HIGH SCHOOL OF THE FUTURE,HIGH SCHOOL OF THE FUTURE,4021 PARKSIDE AVE,19104,(215) 400-7790,HIGH SCHOOL,9-12,569,1,DISTRICT,366
-8368462.13179163,4876296.35019032,126515001,7229,6460,HILL-FREEDMAN WORLD ACADEMY,HILL-FREEDMAN WORLD ACADEMY,1100 E MT PLEASANT AVE,19150,(215) 400-3530,MIDDLE/HIGH,6-12,641,1,DISTRICT,367
-8349975.71307733,4873936.31874757,126515001,3766,8270,"HOLME, THOMAS SCHOOL",THOMAS HOLME SCHOOL,9125 ACADEMY RD,19114,(215) 400-3130,ELEMENTARY/MIDDLE,K-8,787,1,DISTRICT,368
-8360344.99443449,4867164.92698638,126515001,3742,7300,"HOPKINSON, FRANCIS SCHOOL",FRANCIS HOPKINSON SCHOOL,4001 L ST,19124,(215) 400-3970,ELEMENTARY/MIDDLE,K-8,572,1,DISTRICT,369
-8370649.07217489,4874537.92541555,126515001,3713,6260,"HOUSTON, HENRY H. SCHOOL",HENRY H. HOUSTON SCHOOL,7300 RURAL LN,19119,(215) 400-3490,ELEMENTARY/MIDDLE,K-8,458,1,DISTRICT,370
-8364792.48429925,4871948.3987367,126515001,3743,7320,"HOWE, JULIA WARD SCHOOL",JULIA W. HOWE SCHOOL,5800 N 13TH ST,19141,(215) 400-3650,ELEMENTARY SCHOOL,K-5,229,1,DISTRICT,371
-8363670.21860611,4864112.66810904,126515001,3693,5330,"HUNTER, WILLIAM H. SCHOOL",WILLIAM H. HUNTER SCHOOL,2400 N FRONT ST,19133,(215) 400-7110,ELEMENTARY/MIDDLE,K-8,385,1,DISTRICT,372
-8367160.43112016,4856446.41521027,126515001,3642,2510,"COPPIN, FANNY JACKSON SCHOOL
",FANNY JACKSON COPPIN SCHOOL,1213 S 12TH ST,19147,(215) 400-7970,ELEMENTARY/MIDDLE,K-8,520,1,DISTRICT,373
-8371600.66346575,4876817.68244162,126515001,3714,6270,JENKS ACADEMY ARTS & SCIENCES,JENKS ACADEMY FOR ARTS AND SCIENCES,8301 GERMANTOWN AVE,19118,(215) 400-3360,ELEMENTARY/MIDDLE,K-8,395,1,DISTRICT,374
-8367712.73120713,4854163.48389933,126515001,7227,2520,"JENKS, ABRAM SCHOOL",ABRAM S. JENKS SCHOOL,2501 S 13TH ST,19148,(215) 400-8240,ELEMENTARY SCHOOL,K-5,278,1,DISTRICT,375
-8361339.5595379,4867741.71718466,126515001,7963,7150,JUNIATA PARK ACADEMY,JUNIATA PARK ACADEMY,801 E HUNTING PARK AVE,19124,(215) 400-7010,ELEMENTARY/MIDDLE,K-8,854,1,DISTRICT,376
-8365451.49323815,4860691.54337393,126515001,3645,5480,"KEARNY, GEN. PHILIP SCHOOL",GENERAL PHILIP KEARNY SCHOOL,601 FAIRMOUNT AVE,19123,(215) 400-7590,ELEMENTARY/MIDDLE,K-8,190,1,DISTRICT,377
-8369035.70700681,4863093.26812088,126515001,3626,4560,"KELLEY, WILLIAM D. SCHOOL",WILLIAM D. KELLEY SCHOOL,1601 N 28TH ST,19121,(215) 400-7370,ELEMENTARY/MIDDLE,K-8,202,1,DISTRICT,378
-8352971.67401024,4870964.0059743,126515001,3764,8250,"FORREST, EDWIN SCHOOL",EDWIN FORREST SCHOOL,7300 COTTAGE ST,19136,(215) 400-3330,ELEMENTARY SCHOOL,K-5,809,1,DISTRICT,379
-8357955.7922245,4876826.20741204,126515001,3765,8260,FOX CHASE SCHOOL,FOX CHASE SCHOOL,500 RHAWN ST,19111,(215) 400-3170,ELEMENTARY SCHOOL,K-5,507,1,DISTRICT,380
-8364628.50137006,4865532.19035079,126515001,5121,5390,POTTER-THOMAS SCHOOL,POTTER-THOMAS SCHOOL,3001 N 6TH ST,19133,(215) 400-7120,ELEMENTARY/MIDDLE,K-8,326,1,DISTRICT,381
-8354738.01957106,4868416.54511998,,,3404,TACONY ACADEMY CHARTER SCHOOL,TACONY ACADEMY CHARTER SCHOOL (HIGH SCHOOL),6201 KEYSTONE ST,19135,(215) 515-5900,HIGH SCHOOL,9-12,,2,CHARTER,382
-8365401.42966255,4873464.93421181,126515001,3835,7130,"WAGNER, GEN. LOUIS MIDDLE SCH.",GENERAL LOUIS WAGNER SCHOOL,1701 CHELTEN AVE,19126,(215) 400-3560,MIDDLE SCHOOL,6-8,297,1,DISTRICT,383
-8367621.89350469,4860842.99107262,126515001,7225,2490,"WARING, LAURA W. SCHOOL",LAURA W. WARING SCHOOL,1801 GREEN ST,19130,(215) 400-7560,ELEMENTARY/MIDDLE,K-8,196,1,DISTRICT,384
-8351905.52897917,4881385.38143267,126515001,6527,8030,"WASHINGTON, GEORGE HIGH SCHOOL",GEORGE WASHINGTON HIGH SCHOOL,10175 BUSTLETON AVE,19116,(215) 400-3100,HIGH SCHOOL,9-12,1763,1,DISTRICT,385
-8362094.05856317,4871099.33137146,126515001,7663,7370,"WASHINGTON, GROVER JR. MIDDLE","GROVER WASHINGTON, JR. SCHOOL",201 E OLNEY AVE,19120,(215) 400-3820,MIDDLE SCHOOL,5-8,399,1,DISTRICT,386
-8372479.76534031,4861034.21399833,126515001,3615,1420,"WASHINGTON, MARTHA SCHOOL",MARTHA WASHINGTON SCHOOL,766 N 44TH ST,19104,(215) 400-7770,ELEMENTARY/MIDDLE,K-8,205,1,DISTRICT,387
-8360706.22154339,4865389.0783266,126515001,5124,5590,"WEBSTER, JOHN H. SCHOOL",JOHN H. WEBSTER SCHOOL,3400 FRANKFORD AVE,19134,(215) 400-7170,ELEMENTARY SCHOOL,K-5,477,1,DISTRICT,388
-8364471.05783021,4863980.76450417,126515001,3703,5420,"WELSH, JOHN SCHOOL",JOHN WELSH SCHOOL,2331 N 4TH ST,19133,(215) 400-7130,ELEMENTARY/MIDDLE,K-8,186,1,DISTRICT,389
-8373413.58097155,4859856.80482662,126515001,3860,1020,WEST PHILADELPHIA HIGH SCHOOL,WEST PHILADELPHIA HIGH SCHOOL,4901 CHESTNUT ST,19139,(215) 400-7900,HIGH SCHOOL,9-12,719,1,DISTRICT,390
-8349640.32513772,4882471.04397948,126513150,7574,3328,"MATH, SCIENCE AND TECHNOLOGY","MATHEMATICS, SCIENCE, AND TECHNOLOGY COMMUNITY CHARTER SCHOOL (MAST)",1800 BYBERRY RD,19116,(267) 348-1100,ELEMENTARY/MIDDLE/HIGH,K-12,1503,2,CHARTER,391
-8368057.51141746,4876502.52906485,,,,,AD PRIMA CHARTER SCHOOL,8034 THOURON AVE,19150,(215) 488-7095,ELEMENTARY/MIDDLE,K-8,,2,CHARTER,392
-8372860.37033128,4860032.2747641,,,,KIPP PHILADELPHIA OCTAVIUS CATTO ELEMENTARY,KIPP OCTAVIUS CATTO CHARTER SCHOOL,4601 MARKET ST,19139,(267) 417-3070,ELEMENTARY SCHOOL,K-3,398,2,CHARTER,393
-8361969.23657444,4862519.31096103,,,,MARITIME ACADEMY CHARTER SCHOOL (MACS),MARITIME ACADEMY CHARTER SCHOOL (MACS),2700 E HUNTINGDON ST,19125,(215) 427-3090,HIGH SCHOOL,9-12,,2,CHARTER,394
-8367114.85511251,4853282.40297293,,,,MASTERY SCHOOL THOMAS CAMPUS,MASTERY SCHOOL THOMAS CAMPUS,814 BIGLER ST,19148,(267) 296-7000,ELEMENTARY SCHOOL,K-6,,2,CHARTER,395
-8351694.6464986,4870812.15397355,,,,NEW FOUNDATIONS CHARTER SCHOOL,NEW FOUNDATIONS CHARTER SCHOOL,4850 RHAWN ST,19136,(215) 344-6410,HIGH SCHOOL,9-12,,2,CHARTER,396
-8362744.05297098,4870124.229381,126513452,8205,3414,OLNEY HIGH SCHOOL,OLNEY HIGH SCHOOL CONTINUATION ACADEMY,100 W DUNCANNON AVE,19120,(215) 400-9140,HIGH SCHOOL,9-12,25,1,CONTRACTED,397
-8360717.25461782,4866709.58444386,,,8890,ONE BRIGHT RAY-SIMPSON CAMPUS,ONE BRIGHT RAY - SIMPSON EVENING,1142 E ERIE AVE,19124,(215) 744-6000,HIGH SCHOOL,9-12,176,1,CONTRACTED,398
-8362948.48480614,4865757.71255509,133513315,8149,3406,JOHN B STETSON MIDDLE SCHOOL,JOHN B STETSON MIDDLE SCHOOL CONTINUATION ACADEMY,3200 B ST,19134,(215) 400-9150,,5-8,22,1,CONTRACTED,399
-8368244.1938692,4873508.90467306,,,,,WISSAHICKON CHARTER SCHOOL,815 E WASHINGTON LN,19138,(267) 774-4370,ELEMENTARY/MIDDLE,K-8,,2,CHARTER,400
-8362101.59464061,4871067.75559173,,,,EXCEL ACADEMY CENTRAL,EXCEL ACADEMY CENTRAL,201 E OLNEY AVE,19120,(215) 346-8970,HIGH SCHOOL,9-12,197,1,CONTRACTED,401
-8367986.26167796,4854394.65362673,,,,BETHEL BAPTIST ACADEMY,BETHEL BAPTIST ACADEMY,2400 S BROAD ST,19145,(215) 426-1909,ELEMENTARY/MIDDLE/HIGH,PREK-12,,3,PRIVATE,402
-8375521.97768237,4859781.80051033,126515001,7245,1100,"SAYRE, WILLIAM L. HIGH SCHOOL",WILLIAM L. SAYRE HIGH SCHOOL,5800 WALNUT ST,19139,(215) 400-7800,HIGH SCHOOL,9-12,447,1,DISTRICT,403
-8375938.37149599,4863938.64147911,126515001,,2680,SCIENCE LEADERSHIP ACADEMY AT BEEBER,THE SCIENCE LEADERSHIP ACADEMY AT BEEBER,5925 MALVERN AVE,19131,(215) 400-7270,MIDDLE/HIGH,5-12,533,1,DISTRICT,404
-8366992.58814469,4860650.57181108,126515001,7906,2650,SCIENCE LEADERSHIP ACADEMY,SCIENCE LEADERSHIP ACADEMY,550 N BROAD ST,19130,(215) 400-7830,HIGH SCHOOL,9-12,502,1,DISTRICT,405
-8370628.99210223,4859803.31393686,126515001,,2050,SCIENCE LEADERSHIP ACADEMY MIDDLE SCHOOL,SCIENCE LEADERSHIP ACADEMY MIDDLE SCHOOL,3610 WARREN ST,19104,(215) 400-8320,MIDDLE SCHOOL,5-8,353,1,DISTRICT,406
-8365753.35582895,4854159.35723193,126515001,3653,2630,"SHARSWOOD, GEORGE SCHOOL",GEORGE W. SHARSWOOD SCHOOL,2300 S 2ND ST,19148,(215) 400-8270,ELEMENTARY/MIDDLE,K-8,328,1,DISTRICT,407
-8375516.29486098,4873425.74442936,126515001,3725,6380,SHAWMONT SCHOOL,SHAWMONT SCHOOL,535 SHAWMONT AVE,19128,(215) 400-3440,ELEMENTARY/MIDDLE,K-8,457,1,DISTRICT,408
-8363614.79405715,4865019.70302633,126515001,3702,5410,"SHEPPARD, ISAAC A. SCHOOL",ISAAC A. SHEPPARD SCHOOL,120 W CAMBRIA ST,19133,(215) 400-7070,ELEMENTARY SCHOOL,K-4,123,1,DISTRICT,409
-8361677.25188271,4865881.52715532,126515001,3800,5530,GLORIA CASAREZ ELEMENTARY SCHOOL,GLORIA CASAREZ ELEMENTARY SCHOOL,800 E ONTARIO ST,19134,(215) 400-7160,ELEMENTARY SCHOOL,K-5,438,1,DISTRICT,410
-8356155.46329058,4872465.29831741,126515001,3773,8340,"SOLIS-COHEN, SOLOMON SCHOOL",SOLOMON SOLIS-COHEN SCHOOL,7001 HORROCKS ST,19149,(215) 400-3250,ELEMENTARY SCHOOL,K-5,1352,1,DISTRICT,411
-8367711.68459755,4854879.81538424,126515001,3859,2000,SOUTH PHILADELPHIA HIGH SCHOOL,SOUTH PHILADELPHIA HIGH SCHOOL,2101 S BROAD ST,19148,(215) 400-8400,HIGH SCHOOL,9-12,656,1,DISTRICT,412
-8366799.87435863,4855179.33851252,126515001,3654,2640,SOUTHWARK SCHOOL,SOUTHWARK SCHOOL,1835 S 9TH ST,19148,(215) 400-8280,ELEMENTARY/MIDDLE,K-8,946,1,DISTRICT,413
-8366343.28161768,4860880.94159043,126515001,3655,5560,SPRING GARDEN SCHOOL,SPRING GARDEN SCHOOL,1146 MELON ST,19123,(215) 400-7610,ELEMENTARY/MIDDLE,K-8,236,1,DISTRICT,414
-8357065.94738012,4871384.63116475,126515001,7234,8350,"SPRUANCE, GILBERT SCHOOL",GILBERT SPRUANCE SCHOOL,6401 HORROCKS ST,19149,(215) 400-3290,ELEMENTARY/MIDDLE,K-8,1258,1,DISTRICT,415
-8367980.76523387,4857290.52843607,126515001,3635,2450,"STANTON, EDWIN M. SCHOOL",EDWIN M. STANTON SCHOOL,901 S 17TH ST,19146,(215) 400-7960,ELEMENTARY/MIDDLE,K-8,316,1,DISTRICT,416
-8358436.43399686,4867650.19511052,126515001,4963,7290,"STEARNE, ALLEN M. SCHOOL",ALLEN M. STEARNE SCHOOL,1655 UNITY ST,19124,(215) 400-3980,ELEMENTARY/MIDDLE,K-8,374,1,DISTRICT,417
-8366426.79568612,4868673.89659028,126515001,3727,6390,"STEEL, EDWARD SCHOOL",EDWARD T. STEEL SCHOOL,4301 WAYNE AVE,19140,(215) 400-3910,ELEMENTARY/MIDDLE,K-8,363,1,DISTRICT,418
-8369447.33875207,4864597.27176853,126515001,7255,4140,STRAWBERRY MANSION HIGH SCHOOL,STRAWBERRY MANSION HIGH SCHOOL,3133 RIDGE AVE,19121,(215) 400-7500,HIGH SCHOOL,9-12,307,1,DISTRICT,419
-8356409.90220412,4868262.1047941,126515001,3753,7430,"SULLIVAN, JAMES J. SCHOOL",JAMES J. SULLIVAN SCHOOL,5300 DITMAN ST,19124,(215) 400-3960,ELEMENTARY SCHOOL,K-5,373,1,DISTRICT,420
-8350519.01658501,4879336.39372856,126515001,7072,8090,SWENSON ARTS/TECH HIGH SCHOOL,SWENSON ARTS AND TECHNOLOGY HIGH SCHOOL,2750 RED LION RD,19114,(215) 400-3140,HIGH SCHOOL,9-12,805,1,DISTRICT,421
-8369452.01975744,4864512.84230252,126515001,,,ONE BRIGHT RAY MANSION,ONE BRIGHT RAY MANSION,3133 RIDGE AVE,19121,(215) 999-3110,HIGH SCHOOL,9-12,147,1,CONTRACTED,422
-8369442.80491312,4864512.30013883,126515001,,,ONE BRIGHT RAY MANSION EVENING,ONE BRIGHT RAY MANSION EVENING,3133 RIDGE AVE,19121,(215) 999-3110,HIGH SCHOOL,9-12,88,1,CONTRACTED,423
-8360290.05406864,4865662.12760502,126516724,,,DEEP ROOTS CHARTER SCHOOL,DEEP ROOTS CHARTER SCHOOL,3556 FRANKFORD AVE,19134,(267) 399-3727,ELEMENTARY SCHOOL,K-5,350,2,CHARTER,424
-8366340.92343548,4867902.74277278,126517643,,,MASTERY PREP ELEMENTARY CHARTER SCHOOL,MASTERY PREP ELEMENTARY CHARTER SCHOOL,1801 W PIKE ST,19140,(215) 866-0067,ELEMENTARY SCHOOL,K-3,608,2,CHARTER,425
-8348038.10639357,4881859.66369706,126511624,3445,,MAST III CHARTER SCHOOL,MAST III CHARTER SCHOOL,1 CROWN WAY,19154,(267) 574-9855,ELEMENTARY SCHOOL,K-8,1292,2,CHARTER,426
-8369367.80009457,4867691.33204562,126510929,3446,,PHILADELPHIA HEBREW PUBLIC CHARTER SCHOOL,PHILADELPHIA HEBREW PUBLIC CHARTER SCHOOL,3300 HENRY AVE,19129,(267) 225-1511,ELEMENTARY SCHOOL,K-1,574,2,CHARTER,427
-8367912.62982483,4854361.05161429,,,,PHILADELPHIA PERFORMING ARTS CHARTER: STRING THEORY (E. CAMPUS),PHILADELPHIA PERFORMING ARTS CHARTER: STRING THEORY (E. CAMPUS),2407 S BROAD ST,19148,(215) 278-2460,ELEMENTARY SCHOOL,K-1,,2,CHARTER,428
-8357293.42115254,4878759.2306823,300513605,,,FOX CHASE FARMS,FOX CHASE FARMS,8500 PINE RD,19111,(215) 400-3310,UNGRADED,UNGRADED,,1,DISTRICT,429
-8362196.34106667,4863287.22508159,326510730,,,LIGUORI ACADEMY,LIGUORI ACADMY,2343 E TUCKER ST,19125,(267) 571-1952,HIGH SCHOOL,9-12,,3,PRIVATE,430
-8366590.40686019,4875746.61009813,226512587,,,NEW MEDINA LEARNING INSTITUTE,NEW MEDINA LEARNING INSTITUTE,"7401 LIMEKILN PIKE, 2ND FLOOR",19138,(215) 298-9994,ELEMENTARY/MIDDLE/HIGH,K-12,,3,PRIVATE,431
-8362744.05297098,4870124.229381,126513452,8205,3414,OLNEY HIGH SCHOOL,OLNEY HIGH SCHOOL,100 W DUNCANNON AVE,19120,(215) 400-9140,HIGH SCHOOL,9-12,1148,1,DISTRICT,432
-8371763.2454937,4861148.5080713,126510010,7750,3368,BELMONT ELEMENTARY CHARTER,BELMONT CHARTER SCHOOL,4030 BROWN ST,19104,(215) 823-8208,ELEMENTARY/MIDDLE/HIGH,K-12,948,2,CHARTER,433
-8374940.54950785,4858934.24386068,185515523,7981,3388,BOYS LATIN OF PHILADELPHIA CHARTER,BOYS LATIN OF PHILADELPHIA CHARTER SCHOOL,5501 CEDAR AVE,19143,(215) 387-5149,HIGH SCHOOL,9-12,754,2,CHARTER,434
-8368738.60752965,4862765.28049638,,,2310,ACHIEVE ACADEMY,"ACHIEVE ACADEMY
",1435 N 26TH ST,19121,(215) 684-5080,MIDDLE/HIGH,6-12,63,1,CONTRACTED,435
-8363055.76477182,4868157.14051908,,8120,3820,ACHIEVE ACADEMY EAST,ACHIEVE ACADEMY EAST,4224 N FRONT ST,19140,(267) 335-4764,MIDDLE/HIGH,6-12,62,1,CONTRACTED,436
-8366611.84052251,4857020.89482934,126513160,7575,3306,CHRISTOPHER COLUMBUS CHARTER,CHRISTOPHER COLUMBUS CHARTER SCHOOL,916 CHRISTIAN ST,19147,(215) 925-7400,ELEMENTARY SCHOOL,K-4,842,2,CHARTER,437
-8360838.55397192,4866619.89520557,126512840,7510,3301,COMMUNITY ACADEMY OF PHILADELPHIA,COMMUNITY ACADEMY OF PHILADELPHIA CHARTER SCHOOL,1100 E ERIE AVE,19124,(215) 533-6700,ELEMENTARY/MIDDLE/HIGH,K-12,1242,2,CHARTER,438
-8363008.48109136,4868155.16847569,,,3190,CROSSROADS @ HUNTING PARK,CROSSROADS AT HUNTING PARK,4224 N FRONT ST,19140,(215) 400-9060,ELEMENTARY SCHOOL,3-6,32,1,DISTRICT,439
-8372397.13829261,4861497.15520236,,,8690,CROSSROADS ACCELERATED ACADEMY,CROSSROADS ACCELERATED ACADEMY,4300 WESTMINSTER AVE,19104,(215) 400-9070,MIDDLE/HIGH,7-10,61,1,DISTRICT,440
-8362534.88407125,4872726.67738448,126513100,7564,3307,DE HOSTOS CHARTER SCHOOL,EUGENIO MARIA DE HOSTOS CHARTER SCHOOL,6301 N 2ND ST,19120,(215) 455-2300,ELEMENTARY/MIDDLE,K-8,631,2,CHARTER,441
-8372790.25428719,4862651.09548276,126510011,7775,3372,DISCOVERY CHARTER SCHOOL,DISCOVERY CHARTER SCHOOL,4700 PARKSIDE AVE,19131,(215) 879-8182,ELEMENTARY/MIDDLE,K-8,621,2,CHARTER,442
-8367838.77315603,4863703.82794437,126518547,8150,3412,DOUGLASS MASTERY CHARTER,MASTERY CHARTER SCHOOL AT DOUGLASS,2118 W NORRIS ST,19121,(215) 684-5063,ELEMENTARY/MIDDLE,K-8,524,2,CHARTER,443
-8360235.3368508,4865712.65636201,,,3510,EL CENTRO DE ESTUDIANTES,EL CENTRO DE ESTUDIANTES (BIG PICTURE),3360 FRANKFORD AVE,19134,(267) 687-1172,HIGH SCHOOL,9-12,121,1,CONTRACTED,444
-8363728.39176625,4868113.48462424,126513440,7665,3333,ESPERANZA ACADEMY CHARTER,ESPERANZA ACADEMY CHARTER SCHOOL,301 W HUNTING PARK AVE,19140,(215) 457-3667,HIGH SCHOOL,9-12,1643,2,CHARTER,445
-8368738.60752965,4862765.28049638,,,8080,EXCEL ACADEMY NORTH,EXCEL ACADEMY NORTH,1435 N 26TH ST,19121,(215) 684-5080,HIGH SCHOOL,9-12,161,1,CONTRACTED,446
-8356268.31704373,4867013.91146737,126510014,7777,3366,MARITIME ACADEMY CHARTER,MARITIME ACADEMY CHARTER SCHOOL (MACS),2275 BRIDGE ST,19137,(215) 535-4555,ELEMENTARY/MIDDLE/HIGH,K-8,836,2,CHARTER,447
-8353987.36652672,4868543.74898046,126513117,,3440,MAST COMMUNITY CHARTER II,MAST COMMUNITY CHARTER SCHOOL II,6501 NEW STATE RD,19135,(267) 526-0005,ELEMENTARY/MIDDLE/HIGH,3-12,1880,2,CHARTER,448
-8366630.60285488,4867531.04821406,126519644,8259,3420,MASTERY CHARTER @ CLEVELAND,MASTERY CHARTER SCHOOL AT CLEVELAND,3701 N 19TH ST,19140,(215) 227-5042,ELEMENTARY/MIDDLE,K-8,742,2,CHARTER,449
-8365731.3300135,4865331.17974612,126511748,8208,3415,MASTERY CHARTER @ CLYMER,MASTERY CHARTER SCHOOL AT CLYMER,1201 W RUSH ST,19133,(215) 223-2243,ELEMENTARY SCHOOL,K-6,422,2,CHARTER,450
-8366338.02866967,4868007.49794994,126513734,8207,3416,MASTERY CHARTER @ GRATZ HIGH,MASTERY CHARTER SCHOOL AT GRATZ,1798 W HUNTING PARK AVE,19140,(215) 227-4408,MIDDLE/HIGH,7-12,1041,2,CHARTER,451
-8369740.35605826,4855550.78488841,126512960,7540,3313,PREPARATORY CHARTER SCHOOL,"PREPARATORY CHARTER SCHOOL OF MATHEMATICS, SCIENCE, TECHNOLOGY AND CAREERS",1928 POINT BREEZE AVE,19145,(215) 334-6144,HIGH SCHOOL,9-12,591,2,CHARTER,452
-8373301.59499191,4855528.67577705,126510008,7684,3359,RICHARD ALLEN PREPARATORY,RICHARD ALLEN PREPARATORY CHARTER SCHOOL,2601 S 58TH ST,19143,(215) 878-5144,MIDDLE SCHOOL,5-8,314,2,CHARTER,453
-8368058.73932087,4859543.0034504,126510001,7677,3360,RUSSELL BYERS CHARTER SCHOOL,RUSSELL BYERS CHARTER SCHOOL,1911 ARCH ST,19103,(215) 972-1700,ELEMENTARY/MIDDLE,K-8,697,2,CHARTER,454
-8363282.0601804,4864065.24851931,114514135,8083,3399,SANKOFA FREEDOM ACADEMY,SANKOFA FREEDOM ACADEMY CHARTER SCHOOL,2501 KENSINGTON AVE,19125,(215) 288-2001,ELEMENTARY/MIDDLE/HIGH,K-12,674,2,CHARTER,455
-8367713.25678991,4854865.03349394,126515001,,3880,SOUTH PHILADELPHIA HIGH SCHOOL EOP,SOUTH PHILADELPHIA HIGH SCHOOL EOP,2101 S BROAD ST,19148,(215) 400-8400,HIGH SCHOOL,9-12,83,1,DISTRICT,456
-8375967.91797049,4854047.77724104,108515107,7960,3392,SOUTHWEST LEADERSHIP ACADEMY,SOUTHWEST LEADERSHIP ACADEMY CHARTER SCHOOL,7101 PASCHALL AVE,19142,(215) 729-1939,ELEMENTARY/MIDDLE,K-8,647,2,CHARTER,457
-8356331.85326951,4875689.40840517,192518422,8126,3404,TACONY ACADEMY CHARTER SCHOOL,TACONY ACADEMY CHARTER SCHOOL,1330 RHAWN ST,19111,(215) 742-5100,ELEMENTARY/MIDDLE/HIGH,K-8,1084,2,CHARTER,458
-8366290.80331237,4864034.3018824,126511530,,3441,TECH FREIRE CHARTER SCHOOL,TECH FREIRE CHARTER SCHOOL,2221 N BROAD ST,19132,(267) 507-1111,HIGH SCHOOL,9-12,534,2,CHARTER,459
-8370966.53800425,4856526.87690469,126512674,3617,3424,UNIVERSAL ALCORN CHARTER,UNIVERSAL CHARTER SCHOOL AT ALCORN,3200 DICKINSON ST,19146,(215) 952-6219,ELEMENTARY/MIDDLE,K-8,462,2,CHARTER,460
-8371068.74723954,4856317.7878969,126519434,8195,3417,UNIVERSAL AUDENRIED CHARTER,UNIVERSAL CHARTER SCHOOL AT AUDENRIED,3301 TASKER ST,19145,(215) 952-4801,HIGH SCHOOL,9-12,587,2,CHARTER,461
-8375235.43575365,4862126.83610651,168513758,8145,3410,GUION S BLUFORD ELEMENTARY SCHOOL,GUION S BLUFORD ELEMENTARY SCHOOL,5720 MEDIA ST,19131,(215) 400-9170,ELEMENTARY/MIDDLE,K-8,477,1,DISTRICT,462
-8360669.52446106,4870938.39410792,126517442,8251,3421,UNIVERSAL CREIGHTON CHARTER,UNIVERSAL CHARTER SCHOOL AT CREIGHTON,5401 TABOR AVE,19120,(215) 537-2531,ELEMENTARY/MIDDLE,K-8,664,2,CHARTER,463
-8367629.0284927,4857357.70294916,126513210,7580,3326,UNIVERSAL INSTITUTE,UNIVERSAL INSTITUTE CHARTER SCHOOL,801 S 15TH ST,19146,(215) 732-2876,ELEMENTARY/MIDDLE,K-8,599,2,CHARTER,464
-8369403.62065135,4855557.31195524,126513415,8196,3418,UNIVERSAL VARE CHARTER SCHOOL,UNIVERSAL CHARTER SCHOOL AT VARE,1901 S 23RD ST,19145,(215) 952-8611,MIDDLE SCHOOL,5-8,127,2,CHARTER,465
-8367152.9069333,4874594.17396811,126513020,7548,3314,WEST OAK LANE CHARTER SCHOOL,WEST OAK LANE CHARTER SCHOOL,7115 STENTON AVE,19138,(215) 927-7995,ELEMENTARY/MIDDLE,K-8,970,2,CHARTER,466
-8377249.31662429,4861680.60296747,126510006,7722,3357,WEST PHILADELPHIA ACHIEVEMENT,WEST PHILADELPHIA ACHIEVEMENT CHARTER SCHOOL,6701 CALLOWHILL ST,19151,(215) 476-6471,ELEMENTARY SCHOOL,K-5,653,2,CHARTER,467
-8368174.96720411,4868214.26837536,126510007,7724,3362,WISSAHICKON CHARTER SCHOOL,WISSAHICKON CHARTER SCHOOL,4700 WISSAHICKON AVE,19144,(267) 338-1020,ELEMENTARY/MIDDLE,K-8,988,2,CHARTER,468
-8353413.240313,4872272.88950939,126515001,8493,"8130
","NORTHEAST COMMUNITY PROPEL ACADEMY
",NORTHEAST COMMUNITY PROPEL ACADEMY,7500 ROWLAND AVE,19136,(215) 400-8350,ELEMENTARY/MIDDLE,K-8,1789,1,DISTRICT,469
-8368579.91529318,4854477.60739432,,,,ST MONICA SCHOOL (JUNIOR SCHOOL),ST MONICA JUNIOR SCHOOL,1720 RITNER ST,19145,(215) 334-6001,ELEMENTARY SCHOOL,K-4,,3,ARCHDIOCESE,470
-8366735.22217034,4858698.63837867,326514392,,,K012 KIDS SCHOOL,K012 KIDS SCHOOL,1112 CHESTNUT ST,19107,(215) 545-2930,PRE-K/ELEMENTARY,PREK-3,,3,PRIVATE,471
-8372867.22366165,4865948.65101859,326512996,,,NEW OAKS ACADEMY,NEW OAKS ACADEMY,4200 MONUMENT ST,19131,(215) 581- 3879,UNGRADED,5-12,,3,PRIVATE,472
-8369658.38999853,4866191.29784236,300515320,,,PRODIGY LEARNING CENTERS,PRODIGY LEARNING CENTERS,3345 W HUNTING PARK AVE,19132,(215) 228-7678,PRE-K/ELEMENTARY,PREK-5,,3,PRIVATE,473
-8364532.95443486,4871902.82046323,226515695,,,SAINTS TABERNACLE DAY SCHOOL,SAINTS TABERNACLE DAY SCHOOL,5800 N MARVINE ST,19141,(215) 548-6011 ,ELEMENTARY SCHOOL,PREK-5,,3,PRIVATE,474
-8359803.760601,4872975.48506279,,,,"MATHEMATICS, SCIENCE AND TECHNOLOGY COMMUNITY CHARTER SCHOOL II",MAST COMMUNITY CHARTER SCHOOL II (LAWNCREST CAMPUS),6238 RISING SUN AVE,19111,(215) 398-7960,ELEMENTARY SCHOOL,K-2,,2,CHARTER,475
-8367975.73241842,4853992.32558861,326517070,,,CHILDREN'S HOUSE OF PHILADELPHIA,CHILDREN'S HOUSE OF PHILADELPHIA,2611 S BROAD ST,19148,(215) 570-0757,PRE-K/KINDERGARTEN,PREK-K,,3,PRIVATE,476
-8365010.86311579,4861988.00030036,326511965,,,LITTLE CITY MONTESSORI,LITTLE CITY MONTESSORI,1401 N 5TH ST,19122,(215) 764-0633,PRE-K/KINDERGARTEN,PREK-K,,3,PRIVATE,477
-8376209.42282642,4861317.54445332,,,,,BOYS LATIN OF PHILADELPHIA CHARTER SCHOOL,344 N FELTON ST,19139,(215) 387-5149,MIDDLE SCHOOL,6-8,,2,CHARTER,478
-8363899.37401962,4868236.97392049,,,,,ESPERANZA ACADEMY CHARTER SCHOOL,4261 N 5TH ST,19140,(267) 270-4044,MIDDLE SCHOOL,6-8,,2,CHARTER,479
-8363615.38110673,4865700.04818783,,,,,ESPERANZA ACADEMY CHARTER SCHOOL,3150 N MASCHER ST,19140,(215) 999-0203,ELEMENTARY SCHOOL,K-5,,2,CHARTER,480
-8367068.25554867,4860263.73251505,,,,RE-ENGAGEMENT CENTER,RE-ENGAGEMENT CENTER,440 N BROAD ST,19130,(215) 400-6700,HIGH SCHOOL,9-12,1,1,DISTRICT,481
-8367067.2622713,4860279.65874787,,,,STUDENT TRANSITION CENTER,STUDENT TRANSITION CENTER,440 N BROAD ST,19130,,ELEMENTARY/MIDDLE/HIGH,1-12,46,1,DISTRICT,482
-8372589.1496535,4862312.85565645,,,,BELMONT CHARTER HIGH SCHOOL,BELMONT CHARTER HIGH SCHOOL,1301 BELMONT AVE,19104,(215) 877-1286,HIGH SCHOOL,9-12,,2,CHARTER,483
-8367769.4460808,4866804.5397473,,,,KIPP PHILADELPHIA ELEMENTARY ACADEMY,KIPP PHILADELPHIA ELEMENTARY ACADEMY,2409 W WESTMORELAND ST,19140,(267) 687-7283,ELEMENTARY,K-4,,2,CHARTER,484
-8368286.12051551,4866298.14937694,,,,KIPP PHILADELPHIA PREPARATORY ACADEMY,KIPP PHILADELPHIA PREPARATORY ACADEMY,2600 W CLEARFIELD ST,19132,(215) 227-1728,MIDDLE SCHOOL,5-8,,2,CHARTER,485
-8375972.69268737,4857876.89116484,,,,KIPP WEST PHILADELPHIA PREPARATORY,KIPP WEST PHILADELPHIA PREPARATORY CHARTER SCHOOL,5900 BALTIMORE AVE,19143,(215) 294-2973,MIDDLE SCHOOL,5-8,,2,CHARTER,486
-8368879.32424962,4870485.66017874,,,,ANTHONY WAYNE ACADEMY,ANTHONY WAYNE ACADEMY,5538 WAYNE AVE,19144,(267) 297-7782,MIDDLE/HIGH,6-12,,3,PRIVATE,487
-8368555.90951703,4859514.65337087,300513960,,,GREENE TOWNE SCHOOL INC,GREENE TOWNE SCHOOL INC.,55 N 22ND ST,19103,(215) 563-6368,ELEMENTARY SCHOOL,PREK-3,,3,PRIVATE,488
-8369008.81592163,4872006.4241657,,,,POINCIANA MONTESSORI,POINCIANA MONTESSORI,6144 GERMANTOWN AVE,19144,(215) 975-0015,ELEMENTARY SCHOOL,K-4,,3,PRIVATE,489
-8369465.19325818,4866919.98003802,,,,SMART CENTER ACADEMY,SMART CENTER ACADEMY,3301 W WESTMORELAND ST,19129,(610) 742-2804,PRE-K/KINDERGARTEN,PREK-K,,3,PRIVATE,490
-8376023.72725808,4864256.44755506,,,,YESHIVA KETANA OF PHILADELPHIA,YESHIVA KETANA OF PHILADELPHIA,5900 DREXEL RD,19131,(610) 756-8367,ELEMENTARY SCHOOL,K-3,,3,PRIVATE,491
-8363170.04057147,4861984.38272179,126515001,6823,5430,(TEMPORARY) AMY 5 AT JAMES MARTIN,(TEMPORARY) ALTERNATIVE MIDDLE YEARS AT JAMES MARTIN ,600 E THOMPSON ST,19125,(215) 400-7190,MIDDLE SCHOOL,6-8,185,1,DISTRICT,492
-8353879.70986986,4872605.45359098,126515001,3766,8270,"(TEMPORARY) HOLME, THOMAS SCHOOL",(TEMPORARY) THOMAS HOLME SCHOOL,3001 RYAN AVE,19152,(215) 400-3130,ELEMENTARY/MIDDLE,K-8,787,1,DISTRICT,493
-8367812.50930308,4864283.80267849,126515001,3786,4270,"(TEMPORARY) DICK, WILLIAM SCHOOL",(TEMPORARY) WILLIAM DICK SCHOOL,2200 N 22ND ST,19132,(215) 400-7340,ELEMENTARY/MIDDLE,K-8,343,1,DISTRICT,494
-8362751.25768895,4870082.65121204,,,,PHILADELPHIA CONTINUATION ACADEMY,PHILADELPHIA CONTINUATION ACADEMY,100 W DUNCANNON AVE,19120,,HIGH SCHOOL,9-12,25,1,DISTRICT,495
